{"type":"FeatureCollection","features":[{"type":"Feature","geometry":{"type":"MultiPolygon","coordinates":[[[[-73.608178,-7.201942],[-72.658816,-7.624607],[-70.368997,-8.141024],[-68.727521,-8.999689],[-66.626959,-9.935258],[-67.047783,-10.27537],[-67.406348,-10.373624],[-67.707391,-10.708131],[-68.054241,-10.669845],[-68.237692,-10.956333],[-68.542816,-11.108756],[-68.715613,-11.143104],[-68.757804,-11.000915],[-69.423511,-10.926513],[-69.935091,-10.92091],[-70.311421,-11.069586],[-70.531044,-10.934591],[-70.621576,-10.999458],[-70.622653,-9.821404],[-70.537764,-9.764902],[-70.600274,-9.557555],[-70.493979,-9.426199],[-71.212348,-9.966583],[-72.180409,-9.99979],[-72.150676,-9.799055],[-72.270993,-9.749449],[-72.253722,-9.613856],[-72.356853,-9.493771],[-73.214815,-9.410931],[-73.005153,-9.210582],[-72.936769,-8.98833],[-73.290566,-8.614645],[-73.279806,-8.47484],[-73.536741,-8.345494],[-73.630059,-8.021454],[-73.771247,-7.90571],[-73.683598,-7.776067],[-73.987573,-7.554907],[-73.919102,-7.465302],[-73.961742,-7.345469],[-73.700266,-7.305066],[-73.803699,-7.111057],[-73.608178,-7.201942]]]]},"properties":{"id":1,"name":"Acre","sigla":"AC","regiao_id":"3","codigo_ibg":"12","cartodb_id":1,"created_at":"2015-02-09T16:46:01Z","updated_at":"2015-02-09T16:46:01Z"}},{"type":"Feature","geometry":{"type":"MultiPolygon","coordinates":[[[[-35.465161,-8.825492],[-35.176222,-8.888406],[-35.181509,-8.977639],[-36.391006,-10.50069],[-36.455743,-10.407212],[-36.56376,-10.415908],[-36.623312,-10.25773],[-36.910464,-10.137513],[-36.991601,-9.976776],[-37.78483,-9.638153],[-38.237084,-9.329271],[-37.759906,-8.857214],[-37.698445,-8.992052],[-37.48985,-8.965277],[-37.23392,-9.239747],[-37.105852,-9.239376],[-36.952008,-9.38212],[-36.867795,-9.268107],[-36.603786,-9.340622],[-36.224498,-9.170589],[-36.266392,-9.101956],[-36.063478,-8.914917],[-35.465161,-8.825492]],[[-35.290981,-9.148233],[-35.290951,-9.149527],[-35.289244,-9.148],[-35.290186,-9.146987],[-35.291033,-9.146075],[-35.290981,-9.148233]]]]},"properties":{"id":2,"name":"Alagoas","sigla":"AL","regiao_id":"4","codigo_ibg":"27","cartodb_id":2,"created_at":"2015-02-09T16:46:01Z","updated_at":"2015-02-09T16:46:01Z"}},{"type":"Feature","geometry":{"type":"MultiPolygon","coordinates":[[[[-67.32553,2.030119],[-67.277525,1.876155],[-67.096812,1.733011],[-67.08759,1.167322],[-66.856352,1.230626],[-66.598716,1.000108],[-66.317916,0.755435],[-66.087916,0.759496],[-65.879065,0.933058],[-65.584982,1.009292],[-65.493079,0.882491],[-65.59061,0.722275],[-65.539922,0.64926],[-65.423018,0.708349],[-65.328523,0.931928],[-65.181275,0.923526],[-65.102503,1.157025],[-65.021636,1.115381],[-64.809914,1.314744],[-64.745882,1.225626],[-64.396853,1.527208],[-64.337406,1.363963],[-64.094647,1.617491],[-63.995785,1.979573],[-63.667371,2.017307],[-63.371834,2.212058],[-63.14098,2.172756],[-63.023254,2.014976],[-62.705501,1.940031],[-62.803914,1.590666],[-62.636847,1.434036],[-62.445258,0.977169],[-62.53248,0.509141],[-62.423875,0.091908],[-62.18784,-0.330494],[-62.308673,-0.513833],[-62.290344,-0.64633],[-62.406375,-0.726972],[-62.486096,-0.681141],[-62.509707,-0.75864],[-62.039147,-1.118076],[-61.896094,-1.395022],[-61.634982,-1.433631],[-61.474144,-1.578632],[-61.618591,-1.394467],[-61.584703,-0.93669],[-61.46414,-0.664471],[-61.216365,-0.49975],[-60.920256,-0.555036],[-60.667481,-0.894188],[-60.309142,-0.724475],[-60.399423,-0.509759],[-60.037434,0.263837],[-59.433029,0.263858],[-59.191754,0.263858],[-58.89489,0.263852],[-58.871545,-0.342665],[-58.729246,-0.434959],[-58.704659,-0.678644],[-58.435532,-0.883137],[-58.322768,-1.142963],[-58.162129,-1.229325],[-58.01703,-1.105819],[-57.959836,-1.40124],[-57.392176,-1.722738],[-57.16439,-1.720534],[-57.036699,-1.911216],[-56.734026,-2.021675],[-56.768032,-2.165412],[-56.678565,-2.212225],[-56.098136,-2.026721],[-56.46509,-2.422775],[-56.401654,-2.456277],[-58.262031,-6.468555],[-58.477949,-6.699242],[-58.434032,-6.908436],[-58.209,-7.133889],[-58.136365,-7.356093],[-58.201587,-7.620545],[-58.382425,-7.838707],[-58.286495,-8.128132],[-58.416655,-8.491859],[-58.436896,-8.703034],[-58.325551,-8.719611],[-58.331458,-8.725977],[-58.354071,-8.736947],[-58.394898,-8.779819],[-61.582423,-8.79831],[-61.712737,-8.687474],[-61.984687,-8.878228],[-62.124437,-8.801291],[-62.187856,-8.590182],[-62.335242,-8.609107],[-62.366551,-8.389222],[-62.525603,-8.382677],[-62.844524,-7.986158],[-63.620267,-7.968921],[-63.77299,-8.320355],[-63.943608,-8.330811],[-63.924056,-8.575147],[-64.13036,-8.721781],[-64.148942,-8.958555],[-64.838837,-8.993728],[-65.097373,-9.43213],[-65.184149,-9.426604],[-65.246189,-9.257276],[-65.446554,-9.31599],[-65.434254,-9.465947],[-65.596321,-9.413476],[-65.79108,-9.585253],[-65.969866,-9.412766],[-66.408458,-9.406552],[-66.50022,-9.633167],[-66.805966,-9.814127],[-68.727521,-8.999689],[-70.368997,-8.141024],[-72.658816,-7.624607],[-73.803699,-7.111057],[-73.644775,-6.761425],[-73.137127,-6.497262],[-73.236244,-6.03117],[-72.96166,-5.653915],[-72.814452,-5.109594],[-71.882947,-4.516117],[-71.619703,-4.469996],[-71.604992,-4.533385],[-71.26877,-4.384642],[-70.942851,-4.385059],[-70.807557,-4.18321],[-70.680871,-4.198996],[-70.652803,-4.126768],[-70.624403,-4.192082],[-70.325613,-4.14608],[-70.198758,-4.365906],[-70.107803,-4.264269],[-70.043562,-4.351926],[-69.963656,-4.300192],[-69.395245,-1.132138],[-69.625743,-0.749224],[-69.563854,-0.63935],[-69.614233,-0.505595],[-70.05706,-0.186323],[-70.042718,0.559422],[-69.606432,0.629895],[-69.480791,0.735938],[-69.358015,0.612602],[-69.114365,0.650391],[-69.185624,0.733631],[-69.135255,0.877623],[-69.264789,1.064718],[-69.843846,1.085633],[-69.844345,1.500304],[-69.844014,1.575961],[-69.841504,1.720918],[-69.551673,1.79191],[-69.392529,1.724968],[-68.156176,1.73211],[-68.266269,1.82776],[-68.207987,1.962003],[-67.940565,1.831186],[-67.768272,2.039764],[-67.619139,2.024124],[-67.406873,2.246621],[-67.32553,2.030119]]]]},"properties":{"id":3,"name":"Amazonas","sigla":"AM","regiao_id":"3","codigo_ibg":"13","cartodb_id":3,"created_at":"2015-02-09T16:46:01Z","updated_at":"2015-02-09T16:46:01Z"}},{"type":"Feature","geometry":{"type":"MultiPolygon","coordinates":[[[[-51.181678,4.008887],[-51.075149,3.890906],[-51.014374,3.045764],[-50.702067,2.13866],[-50.445945,2.199662],[-50.237715,1.803558],[-49.9213,1.70426],[-49.893209,1.193334],[-50.093461,0.702404],[-50.409404,0.62366],[-50.667739,0.185354],[-51.2159,-0.11829],[-51.67874,-0.784922],[-51.703871,-1.067409],[-51.808628,-1.156769],[-51.984865,-1.121114],[-52.06999,-1.235651],[-52.119791,-1.145867],[-52.426566,-1.050463],[-52.402686,-0.876817],[-52.538185,-0.854477],[-52.522704,-0.588746],[-52.639535,-0.584576],[-52.689648,-0.302593],[-52.933229,-0.139195],[-53.174834,0.382038],[-53.105819,0.6843],[-53.411014,0.92966],[-53.42604,1.243034],[-53.535535,1.212585],[-53.538067,1.341175],[-53.650483,1.336535],[-53.649819,1.408565],[-54.08598,1.488609],[-54.143178,1.640923],[-54.308816,1.74136],[-54.744288,1.776109],[-54.81234,2.06312],[-54.76262,2.202624],[-54.875756,2.426999],[-54.684358,2.44719],[-54.661689,2.327363],[-54.601136,2.337541],[-54.436022,2.210262],[-53.97432,2.232816],[-53.766666,2.379297],[-53.540102,2.257596],[-53.337633,2.353968],[-53.231104,2.269038],[-53.266912,2.169116],[-52.943625,2.169207],[-52.55407,2.516693],[-52.332621,3.172676],[-51.923717,3.783872],[-51.645939,4.044961],[-51.549021,4.424777],[-51.251546,4.191709],[-51.181678,4.008887]]]]},"properties":{"id":4,"name":"Amapá","sigla":"AP","regiao_id":"3","codigo_ibg":"16","cartodb_id":4,"created_at":"2015-02-09T16:46:01Z","updated_at":"2015-02-09T16:46:01Z"}},{"type":"Feature","geometry":{"type":"MultiPolygon","coordinates":[[[[-39.288197,-8.562901],[-39.233395,-8.705363],[-38.798427,-8.792369],[-38.670581,-8.974455],[-38.551072,-8.822309],[-38.46958,-8.865077],[-38.483023,-9.001073],[-38.295991,-9.02249],[-38.202893,-9.418237],[-37.998505,-9.497317],[-37.99726,-9.916292],[-37.831385,-10.0005],[-37.736156,-10.331607],[-37.858716,-10.426042],[-37.813529,-10.690617],[-37.999466,-10.763949],[-38.211549,-10.708731],[-38.229144,-10.915496],[-37.973964,-11.194839],[-37.977461,-11.39315],[-37.81335,-11.513874],[-37.517548,-11.547579],[-37.342503,-11.443448],[-38.049109,-12.634461],[-38.347479,-12.950453],[-38.488732,-13.014093],[-38.615855,-12.930842],[-38.96459,-13.283183],[-38.888232,-13.642959],[-38.997504,-13.74407],[-38.927587,-13.938912],[-39.065244,-14.705098],[-38.856339,-15.860115],[-39.212599,-17.168154],[-39.135396,-17.687681],[-39.567193,-18.089973],[-39.670192,-18.348743],[-40.222017,-17.979948],[-40.223543,-17.733587],[-40.623079,-17.405503],[-40.490807,-16.884017],[-40.281248,-16.900711],[-40.257407,-16.80607],[-40.345099,-16.786795],[-40.275115,-16.573557],[-40.159458,-16.579837],[-39.856434,-16.113361],[-40.230469,-15.80329],[-40.561657,-15.802818],[-40.815248,-15.648014],[-41.143847,-15.771365],[-41.330809,-15.744212],[-41.356026,-15.499831],[-41.800314,-15.100642],[-42.091227,-15.186151],[-43.175946,-14.650098],[-43.530985,-14.814849],[-43.883097,-14.652781],[-43.782789,-14.338799],[-44.214657,-14.232851],[-44.56515,-14.339617],[-45.083056,-14.748568],[-45.205153,-14.744292],[-46.076651,-15.264229],[-46.118815,-15.191776],[-45.965653,-14.965196],[-46.052396,-14.830925],[-46.016355,-14.418867],[-45.906861,-14.352935],[-46.265352,-14.097523],[-46.260326,-13.686802],[-46.161537,-13.590492],[-46.242457,-13.429489],[-46.041136,-13.280447],[-46.315491,-13.302738],[-46.322236,-13.097851],[-46.113889,-12.917537],[-46.304358,-12.949443],[-46.279515,-12.584471],[-46.153544,-12.482796],[-46.254333,-12.492756],[-46.351964,-12.336976],[-46.397437,-12.039917],[-46.170841,-11.900564],[-46.374156,-11.868178],[-46.314531,-11.631832],[-46.082769,-11.635703],[-46.478886,-11.515971],[-46.616668,-11.289032],[-46.282995,-10.906335],[-46.210548,-10.649255],[-45.827299,-10.435545],[-45.69711,-10.263155],[-45.72247,-10.154896],[-45.602765,-10.107574],[-45.396019,-10.446486],[-45.435502,-10.61946],[-45.247635,-10.821551],[-44.930806,-10.928339],[-44.577371,-10.626353],[-44.335243,-10.548554],[-44.134086,-10.635817],[-43.661876,-10.003925],[-43.652847,-9.838644],[-43.784519,-9.761973],[-43.849292,-9.547644],[-43.485058,-9.26488],[-43.278369,-9.424166],[-42.971497,-9.407654],[-42.945855,-9.518006],[-42.764775,-9.616339],[-42.24334,-9.28851],[-41.837579,-9.241864],[-41.72322,-9.013136],[-41.544135,-8.960144],[-41.38196,-8.708455],[-41.113256,-8.703597],[-41.02086,-8.843156],[-40.920958,-8.835043],[-40.803722,-9.09793],[-40.667025,-9.158669],[-40.776329,-9.454027],[-40.622789,-9.482496],[-40.334654,-9.353473],[-40.250327,-9.060099],[-39.957648,-9.048202],[-39.894253,-8.831304],[-39.674206,-8.786663],[-39.690755,-8.661922],[-39.288197,-8.562901]],[[-39.576153,-18.088199],[-39.57204,-18.091149],[-39.572874,-18.083573],[-39.573559,-18.080663],[-39.581198,-18.082542],[-39.576153,-18.088199]]]]},"properties":{"id":5,"name":"Bahia","sigla":"BA","regiao_id":"4","codigo_ibg":"29","cartodb_id":5,"created_at":"2015-02-09T16:46:01Z","updated_at":"2015-02-09T16:46:01Z"}},{"type":"Feature","geometry":{"type":"MultiPolygon","coordinates":[[[[-40.018043,-2.836985],[-39.252153,-3.221755],[-38.666507,-3.674369],[-38.471724,-3.707322],[-38.013328,-4.246088],[-37.592569,-4.625231],[-37.324909,-4.701287],[-37.251574,-4.832043],[-37.639945,-4.926029],[-38.164332,-5.945699],[-38.304418,-6.086582],[-38.446934,-6.084893],[-38.578217,-6.279809],[-38.601666,-6.389237],[-38.517528,-6.408346],[-38.67277,-6.696831],[-38.613774,-6.782794],[-38.76462,-6.993504],[-38.66947,-7.047311],[-38.687448,-7.189766],[-38.534205,-7.293397],[-38.654944,-7.565145],[-38.965739,-7.84459],[-39.090918,-7.857785],[-39.135257,-7.722986],[-39.30651,-7.664686],[-39.317183,-7.540886],[-39.662188,-7.310208],[-40.24606,-7.433332],[-40.548081,-7.392315],[-40.37021,-6.802665],[-40.731554,-6.653683],[-40.906727,-6.041363],[-40.925133,-5.181109],[-41.248798,-4.868725],[-41.173903,-4.667095],[-41.242161,-4.571146],[-41.090514,-4.169968],[-41.114012,-4.040281],[-41.254308,-4.035393],[-41.300438,-3.825942],[-41.239101,-3.712209],[-41.34137,-3.680416],[-41.298837,-3.490666],[-41.423139,-3.367652],[-41.256275,-3.087663],[-41.322306,-2.920971],[-40.499423,-2.784096],[-40.018043,-2.836985]]],[[[-40.024638,-2.834113],[-40.018043,-2.836985],[-40.027137,-2.835738],[-40.024638,-2.834113]]]]},"properties":{"id":6,"name":"Ceará","sigla":"CE","regiao_id":"4","codigo_ibg":"23","cartodb_id":6,"created_at":"2015-02-09T16:46:01Z","updated_at":"2015-02-09T16:46:01Z"}},{"type":"Feature","geometry":{"type":"MultiPolygon","coordinates":[[[[-40.723829,-20.841778],[-40.957184,-21.302959],[-41.717586,-21.123331],[-41.711998,-20.871073],[-41.878559,-20.760272],[-41.799179,-20.477102],[-41.858371,-20.372478],[-41.756348,-20.206372],[-41.381706,-20.188318],[-41.307512,-19.947845],[-41.184476,-19.888469],[-41.168069,-19.671731],[-40.948926,-19.472666],[-40.907301,-19.308324],[-41.065154,-19.050845],[-41.017966,-18.973054],[-41.241972,-18.853949],[-41.232142,-18.796794],[-40.916547,-18.814972],[-41.052706,-18.628239],[-41.023539,-18.456692],[-41.181624,-18.438594],[-41.158438,-18.308275],[-41.055643,-18.166124],[-40.771099,-18.155441],[-40.882317,-17.97007],[-40.70415,-18.022872],[-40.52664,-17.891464],[-40.222017,-17.979948],[-39.666461,-18.331853],[-39.749915,-18.841233],[-39.688553,-19.305828],[-39.807,-19.64766],[-40.139262,-19.948668],[-40.423668,-20.63522],[-40.723829,-20.841778]],[[-40.526619,-20.655179],[-40.528092,-20.668621],[-40.523256,-20.666099],[-40.517307,-20.664966],[-40.512014,-20.667384],[-40.507857,-20.669284],[-40.504742,-20.670503],[-40.502926,-20.666225],[-40.514532,-20.663367],[-40.520021,-20.662029],[-40.524447,-20.663454],[-40.526619,-20.655179]],[[-40.536145,-20.685265],[-40.525337,-20.689225],[-40.519806,-20.690528],[-40.516552,-20.685316],[-40.520886,-20.684746],[-40.530399,-20.684513],[-40.529711,-20.677003],[-40.535424,-20.67519],[-40.540506,-20.674362],[-40.539057,-20.677758],[-40.532008,-20.679175],[-40.534519,-20.682361],[-40.536145,-20.685265]]],[[[-40.474992,-20.660832],[-40.472407,-20.654176],[-40.464705,-20.652118],[-40.465894,-20.655379],[-40.46751,-20.659813],[-40.471124,-20.660466],[-40.474992,-20.660832]]],[[[-40.724437,-20.846641],[-40.723829,-20.841778],[-40.718565,-20.845484],[-40.724437,-20.846641]]]]},"properties":{"id":8,"name":"Espírito Santo","sigla":"ES","regiao_id":"2","codigo_ibg":"32","cartodb_id":8,"created_at":"2015-02-09T16:46:01Z","updated_at":"2015-02-09T16:46:01Z"}},{"type":"Feature","geometry":{"type":"MultiPolygon","coordinates":[[[[-50.157762,-12.411952],[-50.292184,-12.839493],[-49.369037,-13.274169],[-49.337012,-13.065866],[-49.118631,-12.789931],[-48.975176,-12.956771],[-48.846318,-12.809378],[-48.601652,-13.059894],[-48.58596,-13.317182],[-48.508419,-13.128422],[-48.441266,-13.291938],[-48.173492,-13.147675],[-48.164957,-13.305356],[-48.062013,-13.234968],[-47.823547,-13.311435],[-47.678542,-13.46728],[-47.63434,-13.104065],[-47.426534,-13.289007],[-46.750177,-12.968724],[-46.45422,-12.970722],[-46.417186,-12.823042],[-46.363444,-12.990788],[-46.113889,-12.917537],[-46.322236,-13.097851],[-46.278959,-13.347464],[-46.041136,-13.280447],[-46.242457,-13.429489],[-46.161537,-13.590492],[-46.260326,-13.686802],[-46.265352,-14.097523],[-45.906861,-14.352935],[-46.016355,-14.418867],[-46.007628,-14.792753],[-46.087711,-14.935946],[-46.286411,-14.9277],[-46.502907,-14.703965],[-46.565456,-14.785928],[-46.50217,-15.05181],[-46.924283,-15.057868],[-46.940486,-15.22919],[-46.836466,-15.322149],[-46.948659,-15.554148],[-46.854352,-15.619905],[-46.811723,-15.885109],[-47.31868,-16.036235],[-47.375757,-15.880252],[-47.31543,-15.593974],[-47.416906,-15.499863],[-48.197192,-15.500511],[-48.278674,-16.051101],[-47.30395,-16.060226],[-47.458136,-16.501765],[-47.249709,-16.666359],[-47.126161,-16.980106],[-47.44034,-17.347241],[-47.511202,-17.331282],[-47.540735,-17.453844],[-47.266424,-17.608627],[-47.37261,-17.829485],[-47.282756,-18.057769],[-47.954481,-18.499815],[-48.261949,-18.331418],[-48.815893,-18.379193],[-48.93631,-18.305744],[-49.205198,-18.411329],[-49.378284,-18.641881],[-49.53537,-18.493183],[-49.783217,-18.64088],[-50.016113,-18.599377],[-50.30888,-18.697987],[-50.508662,-18.936965],[-50.53704,-19.098939],[-50.816638,-19.289363],[-50.841692,-19.498685],[-51.087475,-19.307867],[-52.333625,-18.827785],[-52.44862,-18.690507],[-52.916123,-18.638707],[-52.961848,-18.540364],[-52.758375,-18.348349],[-53.100667,-18.309687],[-53.142735,-18.081387],[-53.069568,-17.986086],[-53.23784,-17.713691],[-53.246158,-17.531946],[-53.010827,-16.85757],[-52.785484,-16.740745],[-52.738953,-16.589367],[-52.625653,-16.533003],[-52.681097,-16.303429],[-52.327268,-16.068151],[-52.252232,-15.892651],[-51.87912,-15.824951],[-51.699496,-15.484091],[-51.651614,-15.179438],[-51.535482,-15.069251],[-51.337318,-14.972935],[-51.242127,-15.03496],[-51.085531,-14.917279],[-50.974791,-14.290422],[-50.833177,-14.089412],[-50.871321,-13.73266],[-50.606737,-13.310428],[-50.610289,-13.062646],[-50.477597,-12.709527],[-50.157762,-12.411952]]]]},"properties":{"id":9,"name":"Goiás","sigla":"GO","regiao_id":"5","codigo_ibg":"52","cartodb_id":9,"created_at":"2015-02-09T16:46:01Z","updated_at":"2015-02-09T16:46:01Z"}},{"type":"Feature","geometry":{"type":"MultiPolygon","coordinates":[[[[-47.031021,-8.98549],[-46.913022,-8.847427],[-46.915971,-8.595382],[-46.806408,-8.398576],[-46.54421,-8.318931],[-46.46619,-8.065802],[-46.604246,-7.895787],[-47.043074,-8.053196],[-47.504277,-7.436249],[-47.590437,-7.439154],[-47.499355,-7.293472],[-47.648084,-7.302969],[-47.745785,-7.200837],[-47.529477,-6.976146],[-47.378389,-6.270479],[-47.49969,-5.525235],[-47.843325,-5.37584],[-47.885136,-5.260332],[-48.178105,-5.260407],[-48.36347,-5.168012],[-48.754713,-5.348801],[-47.789489,-4.585147],[-47.610681,-4.555974],[-47.318469,-4.046564],[-47.08769,-3.855094],[-47.037359,-3.562529],[-46.679441,-3.09319],[-46.679228,-2.881383],[-46.575388,-2.841041],[-46.663524,-2.69385],[-46.415968,-2.529057],[-46.431918,-2.239473],[-46.280222,-2.152558],[-46.20959,-1.833459],[-46.32356,-1.765203],[-46.153206,-1.675556],[-46.150725,-1.224448],[-45.964677,-1.046262],[-45.948063,-1.238292],[-45.845856,-1.045085],[-45.859776,-1.283629],[-45.814136,-1.166235],[-45.793914,-1.278643],[-45.679563,-1.13781],[-45.718669,-1.403679],[-45.579919,-1.257056],[-45.551043,-1.3508],[-45.500622,-1.293634],[-45.518507,-1.411757],[-45.409746,-1.289303],[-45.488071,-1.431251],[-45.443181,-1.542735],[-45.317094,-1.317757],[-45.292582,-1.421274],[-45.387851,-1.481401],[-45.374376,-1.54899],[-45.297664,-1.494176],[-45.352397,-1.736272],[-45.309027,-1.600268],[-45.247573,-1.622345],[-45.151098,-1.464945],[-45.128603,-1.529149],[-45.101025,-1.360215],[-45.07831,-1.518439],[-44.815556,-1.417989],[-44.897584,-1.613394],[-44.821114,-1.574971],[-44.797829,-1.659171],[-44.697943,-1.552923],[-44.642346,-1.623917],[-44.783855,-1.670586],[-44.78744,-1.7499],[-44.696758,-1.737646],[-44.81366,-1.814537],[-44.593409,-1.743669],[-44.639096,-1.8574],[-44.529463,-1.837879],[-44.599249,-1.897009],[-44.48747,-1.944881],[-44.499196,-2.141422],[-44.395555,-2.213196],[-44.412392,-2.412709],[-44.373738,-2.453824],[-44.325584,-2.499677],[-44.022443,-2.397911],[-44.101168,-2.4643],[-43.958428,-2.481912],[-43.980142,-2.572756],[-43.614769,-2.219012],[-43.491542,-2.371156],[-43.184776,-2.373164],[-42.478749,-2.711717],[-41.823449,-2.718938],[-41.86511,-2.87453],[-41.796411,-2.966204],[-41.938667,-3.187008],[-42.115443,-3.261972],[-42.20399,-3.435414],[-42.497976,-3.447375],[-42.988804,-4.233691],[-42.85005,-4.480991],[-42.949395,-4.790325],[-42.797558,-5.182848],[-42.825925,-5.346574],[-43.098607,-5.632817],[-43.074595,-6.054348],[-42.828943,-6.337041],[-42.919385,-6.669924],[-43.419644,-6.843448],[-43.715621,-6.698807],[-44.032993,-6.76002],[-44.305797,-7.116782],[-44.563663,-7.227144],[-44.687572,-7.394145],[-44.816324,-7.360815],[-45.455584,-7.670276],[-45.765218,-8.609179],[-45.993873,-8.926466],[-45.783406,-9.479703],[-45.945953,-10.258155],[-46.027854,-10.17646],[-46.367463,-10.168403],[-46.49322,-9.827016],[-46.646991,-9.729945],[-46.560548,-9.483629],[-46.762939,-9.40855],[-46.92223,-9.0663],[-47.068303,-9.063475],[-47.031021,-8.98549]],[[-44.813378,-1.802112],[-44.807013,-1.806953],[-44.810086,-1.801529],[-44.813378,-1.802112]],[[-44.569338,-1.919747],[-44.561008,-1.922738],[-44.566296,-1.917726],[-44.569338,-1.919747]],[[-45.74672,-1.37203],[-45.753933,-1.3783],[-45.744017,-1.374396],[-45.74672,-1.37203]],[[-45.887523,-1.18035],[-45.884711,-1.183372],[-45.877871,-1.178064],[-45.887523,-1.18035]],[[-45.822442,-1.310566],[-45.819922,-1.312316],[-45.819586,-1.303603],[-45.819364,-1.297861],[-45.820304,-1.30174],[-45.822442,-1.310566]],[[-44.693307,-1.816271],[-44.687702,-1.807552],[-44.692319,-1.807529],[-44.693307,-1.816271]],[[-45.389812,-1.68975],[-45.396502,-1.693982],[-45.387998,-1.69234],[-45.387416,-1.679941],[-45.389812,-1.68975]],[[-44.800955,-1.626302],[-44.794239,-1.625919],[-44.790448,-1.618091],[-44.800955,-1.626302]],[[-45.127825,-1.543968],[-45.12258,-1.546307],[-45.112674,-1.544013],[-45.115443,-1.541941],[-45.12258,-1.546307],[-45.12391,-1.543291],[-45.126759,-1.539613],[-45.127825,-1.543968]],[[-45.822986,-1.248629],[-45.813911,-1.227213],[-45.822537,-1.241371],[-45.822986,-1.248629]],[[-45.575672,-1.335734],[-45.572389,-1.339989],[-45.570679,-1.329556],[-45.573574,-1.329346],[-45.575672,-1.335734]],[[-45.7995,-1.331501],[-45.802308,-1.338317],[-45.80076,-1.344098],[-45.798266,-1.333105],[-45.795946,-1.322872],[-45.7995,-1.331501]],[[-44.834212,-1.822641],[-44.845667,-1.82836],[-44.82021,-1.822201],[-44.834212,-1.822641]],[[-45.36857,-1.43638],[-45.367129,-1.424802],[-45.36001,-1.427781],[-45.361591,-1.424943],[-45.367129,-1.424802],[-45.377492,-1.421933],[-45.37052,-1.426192],[-45.36857,-1.43638]],[[-45.905415,-1.240259],[-45.902308,-1.242535],[-45.904551,-1.246027],[-45.906619,-1.249699],[-45.905437,-1.252994],[-45.904126,-1.256649],[-45.903055,-1.259635],[-45.900636,-1.257656],[-45.903726,-1.250276],[-45.902308,-1.242535],[-45.897039,-1.23946],[-45.905415,-1.240259]],[[-45.594841,-1.339187],[-45.587376,-1.332039],[-45.584576,-1.324918],[-45.588166,-1.311739],[-45.588897,-1.323332],[-45.588706,-1.328217],[-45.594841,-1.339187]],[[-45.392395,-1.564463],[-45.388676,-1.541398],[-45.379399,-1.539821],[-45.383801,-1.537106],[-45.388676,-1.541398],[-45.391721,-1.543029],[-45.393804,-1.555044],[-45.39563,-1.56222],[-45.399236,-1.566535],[-45.39837,-1.574532],[-45.392395,-1.564463]]],[[[-44.97077,-1.344386],[-44.963442,-1.277598],[-44.842263,-1.333955],[-44.98279,-1.409302],[-45.02802,-1.338557],[-44.97077,-1.344386]],[[-44.924278,-1.339253],[-44.924183,-1.345755],[-44.92188,-1.34317],[-44.924278,-1.339253]],[[-44.909326,-1.325444],[-44.899114,-1.315602],[-44.899988,-1.311822],[-44.903256,-1.312256],[-44.907787,-1.310718],[-44.905049,-1.304287],[-44.915723,-1.303713],[-44.90891,-1.305953],[-44.907787,-1.310718],[-44.907648,-1.313698],[-44.903256,-1.312256],[-44.910843,-1.322584],[-44.909326,-1.325444],[-44.909727,-1.329004],[-44.905038,-1.329454],[-44.909326,-1.325444]]],[[[-45.677976,-1.300212],[-45.615549,-1.115555],[-45.632442,-1.348353],[-45.696054,-1.361711],[-45.677976,-1.300212]],[[-45.659412,-1.296955],[-45.657569,-1.301196],[-45.654566,-1.308106],[-45.653286,-1.31105],[-45.651168,-1.30863],[-45.658271,-1.291052],[-45.659412,-1.296955]]],[[[-44.801813,-1.529242],[-44.809407,-1.53257],[-44.796289,-1.531133],[-44.792619,-1.530732],[-44.789634,-1.530767],[-44.789378,-1.53605],[-44.783618,-1.537322],[-44.787306,-1.541951],[-44.785548,-1.549164],[-44.791483,-1.558109],[-44.796361,-1.563162],[-44.803524,-1.564718],[-44.809005,-1.562283],[-44.811336,-1.561248],[-44.81804,-1.55827],[-44.820359,-1.554348],[-44.828285,-1.540941],[-44.826203,-1.537955],[-44.824121,-1.534969],[-44.811425,-1.526729],[-44.808082,-1.52456],[-44.801557,-1.520325],[-44.799134,-1.518752],[-44.796966,-1.501454],[-44.795069,-1.498037],[-44.793174,-1.494622],[-44.774976,-1.484016],[-44.773044,-1.483998],[-44.772012,-1.483988],[-44.76914,-1.483962],[-44.763368,-1.48391],[-44.768368,-1.49128],[-44.780022,-1.50846],[-44.788485,-1.520936],[-44.792166,-1.52614],[-44.793512,-1.526573],[-44.794565,-1.526911],[-44.801813,-1.529242]]],[[[-44.774421,-1.527162],[-44.777897,-1.529748],[-44.785,-1.528131],[-44.784559,-1.526849],[-44.783358,-1.523356],[-44.780257,-1.514333],[-44.761015,-1.488541],[-44.761347,-1.480188],[-44.763236,-1.477745],[-44.772066,-1.466328],[-44.7719,-1.46195],[-44.759977,-1.459311],[-44.753019,-1.457771],[-44.742105,-1.470165],[-44.736724,-1.511588],[-44.74331,-1.517941],[-44.744587,-1.519173],[-44.768577,-1.522815],[-44.774421,-1.527162]]],[[[-45.685207,-1.19606],[-45.680129,-1.18754],[-45.672873,-1.200965],[-45.665668,-1.214684],[-45.663336,-1.216806],[-45.660524,-1.219366],[-45.657943,-1.221714],[-45.658946,-1.22531],[-45.661666,-1.235065],[-45.659463,-1.243246],[-45.665532,-1.251239],[-45.675308,-1.257082],[-45.683,-1.26168],[-45.68517,-1.25872],[-45.690728,-1.251142],[-45.697262,-1.242233],[-45.692722,-1.244153],[-45.699548,-1.234029],[-45.699337,-1.219781],[-45.697228,-1.217066],[-45.689904,-1.217363],[-45.696494,-1.212786],[-45.688257,-1.200722],[-45.682839,-1.215329],[-45.675034,-1.215977],[-45.681316,-1.211787],[-45.685207,-1.19606]]],[[[-45.541913,-1.195021],[-45.540477,-1.200909],[-45.532352,-1.203851],[-45.528417,-1.205209],[-45.525776,-1.21454],[-45.524058,-1.223378],[-45.528821,-1.220886],[-45.529284,-1.228575],[-45.532239,-1.231586],[-45.534997,-1.23034],[-45.541747,-1.227292],[-45.557121,-1.226631],[-45.575878,-1.234105],[-45.58969,-1.246773],[-45.592885,-1.246324],[-45.590495,-1.243146],[-45.576719,-1.224826],[-45.570115,-1.209142],[-45.56663,-1.210957],[-45.562,-1.213369],[-45.559093,-1.211535],[-45.565924,-1.207171],[-45.570423,-1.204296],[-45.566329,-1.201491],[-45.571434,-1.193007],[-45.570006,-1.189753],[-45.557348,-1.188197],[-45.554272,-1.187819],[-45.5455,-1.19293],[-45.541913,-1.195021]]],[[[-44.617213,-1.791267],[-44.611386,-1.784215],[-44.604631,-1.779336],[-44.599785,-1.774741],[-44.596865,-1.771972],[-44.594193,-1.769438],[-44.593113,-1.768414],[-44.575974,-1.779582],[-44.577095,-1.781989],[-44.578219,-1.784397],[-44.602793,-1.797002],[-44.6016,-1.805163],[-44.600393,-1.812833],[-44.600673,-1.813289],[-44.602467,-1.81622],[-44.606475,-1.81689],[-44.610931,-1.817635],[-44.611067,-1.817642],[-44.616155,-1.817901],[-44.616934,-1.8138],[-44.617982,-1.798618],[-44.617213,-1.791267]]],[[[-44.728811,-1.562094],[-44.755527,-1.582919],[-44.756392,-1.577175],[-44.753811,-1.555452],[-44.745349,-1.547781],[-44.742613,-1.5376],[-44.736258,-1.537635],[-44.723256,-1.546457],[-44.722815,-1.546756],[-44.722594,-1.547137],[-44.720213,-1.551243],[-44.728811,-1.562094]]],[[[-45.798437,-1.126644],[-45.794639,-1.137761],[-45.803778,-1.15084],[-45.80814,-1.148102],[-45.810328,-1.151566],[-45.812968,-1.14991],[-45.816613,-1.147622],[-45.817951,-1.128572],[-45.816647,-1.121357],[-45.804682,-1.11257],[-45.801082,-1.114583],[-45.79759,-1.116537],[-45.793101,-1.119047],[-45.793258,-1.123493],[-45.798437,-1.126644]]],[[[-45.794195,-1.188348],[-45.787208,-1.186642],[-45.781348,-1.190254],[-45.778819,-1.199331],[-45.778279,-1.201272],[-45.776356,-1.196193],[-45.775505,-1.210167],[-45.785854,-1.227598],[-45.788125,-1.224373],[-45.790828,-1.220534],[-45.795853,-1.213396],[-45.798313,-1.195759],[-45.794195,-1.188348]]],[[[-45.55761,-1.328899],[-45.554294,-1.317899],[-45.549957,-1.310047],[-45.541023,-1.305565],[-45.53515,-1.30262],[-45.531764,-1.308808],[-45.531266,-1.309718],[-45.532456,-1.317312],[-45.529437,-1.316234],[-45.533858,-1.326903],[-45.542298,-1.328794],[-45.550355,-1.326411],[-45.55761,-1.328899]]],[[[-45.090045,-1.41925],[-45.093048,-1.43153],[-45.094335,-1.427008],[-45.096723,-1.418621],[-45.086774,-1.402828],[-45.085609,-1.399475],[-45.077587,-1.376411],[-45.078113,-1.370206],[-45.068567,-1.367478],[-45.065438,-1.371208],[-45.068548,-1.375225],[-45.067498,-1.385251],[-45.074264,-1.389667],[-45.074968,-1.390126],[-45.07851,-1.392437],[-45.078493,-1.398147],[-45.090045,-1.41925]]],[[[-45.096906,-1.468196],[-45.088878,-1.450677],[-45.070608,-1.460102],[-45.068669,-1.466032],[-45.073408,-1.476067],[-45.095419,-1.47134],[-45.096906,-1.468196]]],[[[-45.036117,-1.390365],[-45.041737,-1.386819],[-45.044993,-1.363205],[-45.04881,-1.349034],[-45.045501,-1.345326],[-45.043098,-1.342634],[-45.042261,-1.34618],[-45.041033,-1.351384],[-45.037821,-1.364996],[-45.032798,-1.386283],[-45.036117,-1.390365]]],[[[-44.749242,-1.692028],[-44.734841,-1.682156],[-44.730231,-1.687192],[-44.725832,-1.691997],[-44.740815,-1.70102],[-44.75186,-1.693822],[-44.749242,-1.692028]]],[[[-45.685098,-1.296817],[-45.677976,-1.300212],[-45.676027,-1.313762],[-45.682592,-1.316737],[-45.683699,-1.313769],[-45.685021,-1.310223],[-45.686911,-1.30891],[-45.689356,-1.307211],[-45.692603,-1.304835],[-45.690982,-1.291264],[-45.690592,-1.287999],[-45.68938,-1.289946],[-45.685098,-1.296817]]],[[[-44.46838,-2.075885],[-44.47121,-2.076651],[-44.482172,-2.07513],[-44.444024,-2.057457],[-44.451295,-2.070384],[-44.46838,-2.075885]]],[[[-44.480207,-2.106097],[-44.476213,-2.1035],[-44.475882,-2.095752],[-44.469396,-2.100948],[-44.463409,-2.100845],[-44.467871,-2.107736],[-44.467459,-2.114976],[-44.467243,-2.118755],[-44.467322,-2.121604],[-44.472332,-2.124924],[-44.4715,-2.117828],[-44.475498,-2.116563],[-44.485364,-2.113355],[-44.474412,-2.111089],[-44.480207,-2.106097]]],[[[-45.397623,-1.395383],[-45.397269,-1.404161],[-45.39717,-1.406608],[-45.406363,-1.418294],[-45.409128,-1.414044],[-45.410127,-1.412508],[-45.412623,-1.408674],[-45.406151,-1.396379],[-45.402994,-1.393843],[-45.397623,-1.395383]]],[[[-45.071731,-1.446252],[-45.070153,-1.453052],[-45.078594,-1.439548],[-45.070382,-1.424016],[-45.06513,-1.426973],[-45.061485,-1.439578],[-45.065075,-1.437716],[-45.072065,-1.440093],[-45.063107,-1.444093],[-45.068285,-1.445474],[-45.071731,-1.446252]]],[[[-44.722809,-1.661879],[-44.720479,-1.664844],[-44.720084,-1.665348],[-44.71756,-1.668562],[-44.722692,-1.676865],[-44.736231,-1.672962],[-44.737366,-1.672636],[-44.734797,-1.666376],[-44.722809,-1.661879]]],[[[-44.445095,-2.025063],[-44.457059,-2.029743],[-44.454174,-2.02404],[-44.452178,-2.020108],[-44.449946,-2.015712],[-44.445805,-2.00761],[-44.442638,-2.012259],[-44.438566,-2.018512],[-44.445095,-2.025063]]],[[[-44.622565,-1.812089],[-44.622714,-1.818384],[-44.624523,-1.81448],[-44.629384,-1.803998],[-44.63094,-1.800596],[-44.632858,-1.796316],[-44.63173,-1.792539],[-44.630378,-1.788128],[-44.622231,-1.797852],[-44.622565,-1.812089]]],[[[-45.089187,-1.431686],[-45.087112,-1.421671],[-45.082969,-1.420267],[-45.079107,-1.418958],[-45.082184,-1.44137],[-45.084901,-1.439734],[-45.08784,-1.437965],[-45.089187,-1.431686]]],[[[-45.515138,-1.406052],[-45.522118,-1.405285],[-45.522618,-1.400949],[-45.513994,-1.390264],[-45.512327,-1.389341],[-45.511364,-1.388808],[-45.508078,-1.390048],[-45.506733,-1.390557],[-45.50956,-1.395257],[-45.511236,-1.398043],[-45.515138,-1.406052]]],[[[-45.047764,-1.327364],[-45.043537,-1.331977],[-45.043278,-1.339077],[-45.05001,-1.344179],[-45.054479,-1.329774],[-45.047764,-1.327364]]],[[[-45.790641,-1.247342],[-45.796757,-1.247515],[-45.801481,-1.241909],[-45.798367,-1.238415],[-45.794227,-1.234515],[-45.787918,-1.235114],[-45.790641,-1.247342]]],[[[-45.002047,-1.40122],[-45.000575,-1.401947],[-45.000411,-1.402028],[-44.997834,-1.410183],[-45.0041,-1.410896],[-45.007138,-1.407181],[-45.015456,-1.395525],[-45.010895,-1.396852],[-45.002047,-1.40122]]],[[[-44.613755,-1.830106],[-44.613888,-1.829657],[-44.616218,-1.821751],[-44.612235,-1.821233],[-44.607661,-1.820636],[-44.604489,-1.827009],[-44.602321,-1.833682],[-44.605908,-1.831436],[-44.613363,-1.830173],[-44.613755,-1.830106]]],[[[-45.626304,-1.318555],[-45.625507,-1.321091],[-45.624911,-1.322986],[-45.623706,-1.327185],[-45.628121,-1.339402],[-45.628749,-1.335421],[-45.63014,-1.324586],[-45.631407,-1.314726],[-45.626304,-1.318555]]],[[[-44.830968,-1.56042],[-44.819476,-1.562051],[-44.81613,-1.565392],[-44.816594,-1.570823],[-44.823958,-1.570094],[-44.82755,-1.565137],[-44.830968,-1.56042]]],[[[-45.561853,-1.260879],[-45.558671,-1.2604],[-45.55731,-1.263829],[-45.559842,-1.268027],[-45.561178,-1.270241],[-45.562417,-1.270919],[-45.566802,-1.27332],[-45.567082,-1.268345],[-45.56438,-1.262454],[-45.561853,-1.260879]]],[[[-42.750055,-2.544329],[-42.744241,-2.557435],[-42.749196,-2.550264],[-42.752481,-2.549671],[-42.756292,-2.557072],[-42.760451,-2.557712],[-42.758031,-2.552331],[-42.75665,-2.549322],[-42.755219,-2.546268],[-42.750055,-2.544329]]],[[[-44.00926,-2.399591],[-44.00304,-2.39306],[-43.99997,-2.390526],[-43.996992,-2.400908],[-44.001169,-2.400636],[-44.00926,-2.399591]]],[[[-44.611386,-1.784215],[-44.616667,-1.784876],[-44.616687,-1.781501],[-44.611506,-1.776948],[-44.606165,-1.77465],[-44.602929,-1.775101],[-44.611386,-1.784215]]],[[[-45.640329,-1.31059],[-45.637822,-1.304379],[-45.637654,-1.303879],[-45.636274,-1.29977],[-45.634177,-1.311944],[-45.634384,-1.312889],[-45.635912,-1.31984],[-45.640329,-1.31059]]],[[[-45.653755,-1.361002],[-45.643066,-1.35836],[-45.639085,-1.362132],[-45.646866,-1.364225],[-45.653755,-1.361002]]],[[[-45.641958,-1.247054],[-45.646757,-1.250046],[-45.649132,-1.244951],[-45.647214,-1.242572],[-45.642938,-1.243445],[-45.639346,-1.244708],[-45.639076,-1.244803],[-45.639395,-1.245052],[-45.641958,-1.247054]]],[[[-44.016162,-2.399002],[-44.00926,-2.399591],[-44.010388,-2.402374],[-44.010535,-2.402538],[-44.014749,-2.407207],[-44.016082,-2.403412],[-44.016123,-2.401134],[-44.016162,-2.399002]]],[[[-45.139127,-1.46854],[-45.136402,-1.464649],[-45.134726,-1.468565],[-45.134372,-1.469393],[-45.136275,-1.476072],[-45.138294,-1.470739],[-45.139127,-1.46854]]],[[[-44.775734,-1.568849],[-44.783352,-1.571855],[-44.780123,-1.567823],[-44.772085,-1.563757],[-44.775734,-1.568849]]],[[[-44.875674,-1.339903],[-44.876943,-1.344688],[-44.881552,-1.339683],[-44.877177,-1.339477],[-44.87554,-1.3394],[-44.875674,-1.339903]]],[[[-45.040618,-1.392734],[-45.036117,-1.390365],[-45.037778,-1.395123],[-45.039709,-1.398268],[-45.040618,-1.392734]]],[[[-45.135795,-1.488631],[-45.13291,-1.485202],[-45.132875,-1.49049],[-45.134789,-1.494033],[-45.135795,-1.488631]]],[[[-44.45765,-2.13373],[-44.456353,-2.130673],[-44.453432,-2.130236],[-44.45113,-2.133003],[-44.45765,-2.13373]]],[[[-45.815989,-1.258576],[-45.81443,-1.254715],[-45.813853,-1.256441],[-45.812678,-1.259956],[-45.817065,-1.261242],[-45.815989,-1.258576]]],[[[-47.031325,-8.98013],[-47.031021,-8.98549],[-47.032958,-8.982325],[-47.033844,-8.980878],[-47.035272,-8.978543],[-47.031358,-8.979535],[-47.031325,-8.98013]]],[[[-45.1083,-1.4003],[-45.103678,-1.402188],[-45.106269,-1.406017],[-45.1083,-1.4003]]],[[[-45.11103,-1.390738],[-45.10648,-1.393977],[-45.108271,-1.396702],[-45.11103,-1.390738]]],[[[-45.558671,-1.2604],[-45.555963,-1.257209],[-45.555095,-1.26079],[-45.558671,-1.2604]]],[[[-44.756861,-1.592813],[-44.755316,-1.58709],[-44.754158,-1.590024],[-44.756861,-1.592813]]],[[[-45.76409,-1.187979],[-45.761794,-1.185552],[-45.760822,-1.189251],[-45.76409,-1.187979]]]]},"properties":{"id":10,"name":"Maranhão","sigla":"MA","regiao_id":"4","codigo_ibg":"21","cartodb_id":10,"created_at":"2015-02-09T16:46:01Z","updated_at":"2015-02-09T16:46:01Z"}},{"type":"Feature","geometry":{"type":"MultiPolygon","coordinates":[[[[-44.208858,-14.244127],[-43.782789,-14.338799],[-43.883097,-14.652781],[-43.530985,-14.814849],[-43.175946,-14.650098],[-42.091227,-15.186151],[-41.800314,-15.100642],[-41.356026,-15.499831],[-41.330809,-15.744212],[-40.706817,-15.665945],[-40.561657,-15.802818],[-40.230469,-15.80329],[-39.856434,-16.113361],[-40.159458,-16.579837],[-40.275115,-16.573557],[-40.345099,-16.786795],[-40.257407,-16.80607],[-40.281248,-16.900711],[-40.479596,-16.876351],[-40.569629,-17.06143],[-40.547353,-17.283229],[-40.623079,-17.405503],[-40.223543,-17.733587],[-40.222017,-17.979948],[-40.52664,-17.891464],[-40.70415,-18.022872],[-40.882317,-17.97007],[-40.771099,-18.155441],[-41.055643,-18.166124],[-41.158438,-18.308275],[-41.181624,-18.438594],[-41.023539,-18.456692],[-41.052706,-18.628239],[-40.916547,-18.814972],[-41.232142,-18.796794],[-41.241972,-18.853949],[-41.017966,-18.973054],[-41.071387,-19.023361],[-40.926336,-19.188793],[-40.94447,-19.459626],[-41.168069,-19.671731],[-41.184476,-19.888469],[-41.307512,-19.947845],[-41.381706,-20.188318],[-41.756348,-20.206372],[-41.846733,-20.328993],[-41.808382,-20.643747],[-41.976257,-20.935011],[-42.151261,-20.973889],[-42.080057,-21.035198],[-42.368575,-21.619118],[-42.271127,-21.714706],[-43.072998,-22.093352],[-43.246126,-22.006538],[-43.76557,-22.062424],[-45.090681,-22.482598],[-45.394893,-22.651422],[-45.471344,-22.590023],[-45.664559,-22.650157],[-45.716467,-22.5781],[-45.693546,-22.651209],[-45.819423,-22.722059],[-45.72783,-22.72317],[-45.713135,-22.814285],[-45.790825,-22.857636],[-46.344771,-22.904182],[-46.334763,-22.759699],[-46.477479,-22.698898],[-46.392603,-22.662476],[-46.406688,-22.540048],[-46.722804,-22.306125],[-46.600063,-22.134254],[-46.722808,-22.07652],[-46.613023,-22.009113],[-46.690506,-21.836456],[-46.517102,-21.611396],[-46.508802,-21.469408],[-46.665248,-21.36116],[-47.010779,-21.421805],[-47.239588,-20.884798],[-47.096922,-20.643854],[-47.291328,-20.448829],[-47.256588,-20.165722],[-47.465923,-19.963742],[-47.635516,-20.047902],[-47.859325,-19.992516],[-47.893921,-20.123355],[-47.975508,-20.034894],[-48.111617,-20.143418],[-48.240484,-20.028873],[-48.24591,-20.140474],[-48.822743,-20.161432],[-48.898861,-20.440723],[-48.991778,-20.164918],[-49.217187,-20.303227],[-49.308059,-20.101506],[-49.25025,-19.97033],[-49.550991,-19.905373],[-49.890804,-19.94325],[-50.471424,-19.779185],[-50.999985,-20.084914],[-51.045455,-19.728584],[-50.922642,-19.575596],[-50.96198,-19.484409],[-50.826205,-19.487001],[-50.816638,-19.289363],[-50.53704,-19.098939],[-50.508662,-18.936965],[-50.30888,-18.697987],[-50.016113,-18.599377],[-49.783217,-18.64088],[-49.53537,-18.493183],[-49.378284,-18.641881],[-49.205198,-18.411329],[-48.93631,-18.305744],[-48.815893,-18.379193],[-48.261949,-18.331418],[-47.954481,-18.499815],[-47.282756,-18.057769],[-47.37261,-17.829485],[-47.266424,-17.608627],[-47.330481,-17.524378],[-47.495403,-17.524838],[-47.538375,-17.388339],[-47.126161,-16.980106],[-47.249709,-16.666359],[-47.458136,-16.501765],[-47.300057,-16.0166],[-46.811723,-15.885109],[-46.854352,-15.619905],[-46.948659,-15.554148],[-46.836466,-15.322149],[-46.940486,-15.22919],[-46.918317,-15.049421],[-46.50217,-15.05181],[-46.565456,-14.785928],[-46.47447,-14.704739],[-46.286411,-14.9277],[-46.003447,-14.901848],[-45.975092,-15.038462],[-46.118815,-15.191776],[-46.052203,-15.258742],[-45.205153,-14.744292],[-45.083056,-14.748568],[-44.56515,-14.339617],[-44.208858,-14.244127]]]]},"properties":{"id":11,"name":"Minas Gerais","sigla":"MG","regiao_id":"2","codigo_ibg":"31","cartodb_id":11,"created_at":"2015-02-09T16:46:01Z","updated_at":"2015-02-09T16:46:01Z"}},{"type":"Feature","geometry":{"type":"MultiPolygon","coordinates":[[[[-53.874059,-17.921778],[-53.691681,-18.013226],[-53.071484,-18.039018],[-53.142735,-18.081387],[-53.069433,-18.342428],[-52.758375,-18.348349],[-52.961848,-18.540364],[-52.916123,-18.638707],[-52.530758,-18.657565],[-52.015101,-18.98232],[-51.057341,-19.32898],[-50.923679,-19.558151],[-51.045455,-19.728584],[-51.001363,-20.095808],[-51.068671,-20.249579],[-51.342903,-20.355342],[-51.586467,-20.63433],[-51.61849,-20.93195],[-51.875362,-21.135676],[-51.867191,-21.351186],[-51.967399,-21.501288],[-52.077285,-21.514747],[-52.075978,-21.714378],[-52.407678,-22.141158],[-53.6069,-22.950856],[-53.730098,-23.317225],[-53.982333,-23.459527],[-54.129176,-23.981628],[-54.287104,-24.06951],[-54.670806,-23.811711],[-54.939554,-23.963347],[-55.347445,-23.994038],[-55.536545,-23.625473],[-55.523329,-23.196523],[-55.664853,-22.850607],[-55.614791,-22.655694],[-55.848721,-22.283705],[-56.209411,-22.276399],[-56.392318,-22.074254],[-56.63499,-22.262378],[-56.701855,-22.218357],[-56.841153,-22.302007],[-56.996383,-22.222806],[-57.372214,-22.231129],[-57.612416,-22.094478],[-57.802267,-22.150053],[-57.991276,-22.090252],[-57.881898,-21.688112],[-57.966222,-21.525029],[-57.854037,-21.338328],[-57.920511,-21.279483],[-57.818828,-20.942133],[-57.927699,-20.897513],[-57.858971,-20.826363],[-57.959874,-20.788999],[-57.862474,-20.741218],[-57.919256,-20.66366],[-57.984592,-20.701208],[-57.996433,-20.434807],[-58.166806,-20.171292],[-57.858701,-19.969935],[-58.131162,-19.757998],[-58.006949,-19.499218],[-57.783548,-19.033015],[-57.708824,-19.031052],[-57.704888,-19.025244],[-57.693622,-19.010418],[-57.766025,-18.89879],[-57.557122,-18.239851],[-57.453292,-18.230674],[-57.57422,-18.131396],[-57.794963,-17.559944],[-57.711544,-17.543665],[-57.683769,-17.715201],[-57.451931,-17.902203],[-57.04438,-17.729882],[-56.733322,-17.309422],[-56.442799,-17.330273],[-56.112591,-17.166756],[-55.126737,-17.652278],[-54.86035,-17.623409],[-54.581152,-17.467562],[-54.301909,-17.661214],[-54.076527,-17.614564],[-54.037121,-17.485997],[-53.70815,-17.227724],[-53.705649,-17.661944],[-53.887873,-17.748545],[-53.955241,-17.882572],[-53.874059,-17.921778]]],[[[-53.872177,-17.916416],[-53.87182,-17.921417],[-53.874961,-17.918378],[-53.872177,-17.916416]]]]},"properties":{"id":12,"name":"Mato Grosso do Sul","sigla":"MS","regiao_id":"5","codigo_ibg":"50","cartodb_id":12,"created_at":"2015-02-09T16:46:01Z","updated_at":"2015-02-09T16:46:01Z"}},{"type":"Feature","geometry":{"type":"MultiPolygon","coordinates":[[[[-60.360833,-13.299324],[-60.282449,-13.080147],[-60.085994,-12.8983],[-60.068196,-12.615595],[-59.773813,-12.340553],[-59.831304,-12.291539],[-59.885808,-12.24507],[-59.891778,-12.245054],[-59.984634,-11.913945],[-60.108231,-11.839182],[-60.114345,-11.591064],[-59.920097,-11.397613],[-59.976238,-11.121993],[-60.347429,-11.108644],[-60.459516,-10.989463],[-61.549712,-10.985703],[-61.461237,-10.41952],[-61.59965,-10.154439],[-61.507378,-9.860696],[-61.573828,-9.71728],[-61.477057,-9.626913],[-61.632006,-9.266243],[-61.525876,-9.243674],[-61.468111,-8.917145],[-61.582423,-8.79831],[-58.415355,-8.792461],[-58.325551,-8.719611],[-58.436896,-8.703034],[-58.286495,-8.128132],[-58.382425,-7.838707],[-58.201587,-7.620545],[-58.137919,-7.34866],[-57.642751,-8.213293],[-57.686332,-8.413677],[-57.592418,-8.756092],[-57.192341,-8.929666],[-57.038728,-9.097904],[-57.057311,-9.183803],[-56.819594,-9.245953],[-56.760595,-9.404609],[-50.224346,-9.840752],[-50.602989,-10.660528],[-50.608993,-11.067047],[-50.738781,-11.43495],[-50.65606,-11.600417],[-50.721575,-11.739285],[-50.638822,-11.884152],[-50.686406,-12.201735],[-50.617789,-12.428571],[-50.706022,-12.609279],[-50.622263,-12.819312],[-50.501768,-12.88391],[-50.610289,-13.062646],[-50.606737,-13.310428],[-50.871321,-13.73266],[-50.833177,-14.089412],[-50.974791,-14.290422],[-51.085531,-14.917279],[-51.242127,-15.03496],[-51.337318,-14.972935],[-51.535482,-15.069251],[-51.651614,-15.179438],[-51.699496,-15.484091],[-51.87912,-15.824951],[-52.252232,-15.892651],[-52.327268,-16.068151],[-52.681097,-16.303429],[-52.635262,-16.551188],[-53.010827,-16.85757],[-53.218139,-17.298858],[-53.246376,-17.690234],[-53.071484,-18.039018],[-53.691681,-18.013226],[-53.948407,-17.922976],[-53.855399,-17.702269],[-53.705649,-17.661944],[-53.70815,-17.227724],[-54.037121,-17.485997],[-54.084184,-17.618589],[-54.335071,-17.661278],[-54.581152,-17.467562],[-54.86035,-17.623409],[-55.126737,-17.652278],[-56.112591,-17.166756],[-56.442799,-17.330273],[-56.733322,-17.309422],[-57.04438,-17.729882],[-57.451931,-17.902203],[-57.683769,-17.715201],[-57.727517,-17.529311],[-57.883044,-17.449215],[-58.042741,-17.492183],[-58.394895,-17.183657],[-58.469858,-16.703149],[-58.333051,-16.489507],[-58.320661,-16.264235],[-58.429683,-16.320738],[-60.171006,-16.265216],[-60.228313,-15.586289],[-60.237945,-15.473381],[-60.564259,-15.108196],[-60.500358,-15.095751],[-60.243662,-15.0963],[-60.271537,-14.619837],[-60.48944,-14.188363],[-60.381385,-13.986968],[-60.466579,-13.795243],[-60.716263,-13.68181],[-60.387376,-13.454285],[-60.360833,-13.299324]]],[[[-60.362687,-13.296129],[-60.360833,-13.299324],[-60.36443,-13.299534],[-60.362687,-13.296129]]]]},"properties":{"id":13,"name":"Mato Grosso","sigla":"MT","regiao_id":"5","codigo_ibg":"51","cartodb_id":13,"created_at":"2015-02-09T16:46:01Z","updated_at":"2015-02-09T16:46:01Z"}},{"type":"Feature","geometry":{"type":"MultiPolygon","coordinates":[[[[-46.951454,-0.73406],[-46.955423,-0.86079],[-46.845166,-0.735447],[-46.850245,-0.863957],[-46.788491,-0.899968],[-46.765901,-0.817191],[-46.745884,-0.920073],[-46.63769,-0.787938],[-46.674917,-0.975897],[-46.550613,-0.903612],[-46.536731,-0.977264],[-46.426579,-0.857578],[-46.499647,-0.972936],[-46.42833,-1.065057],[-46.390025,-0.986811],[-46.305111,-1.083947],[-46.189691,-0.894066],[-46.272384,-1.171592],[-46.17117,-0.992504],[-46.172298,-1.155121],[-46.072494,-1.018516],[-46.162483,-1.277969],[-46.103838,-1.336605],[-46.153206,-1.675556],[-46.32356,-1.765203],[-46.20959,-1.833459],[-46.280222,-2.152558],[-46.431918,-2.239473],[-46.415968,-2.529057],[-46.663524,-2.69385],[-46.575388,-2.841041],[-46.679228,-2.881383],[-46.679441,-3.09319],[-47.037359,-3.562529],[-47.08769,-3.855094],[-47.318469,-4.046564],[-47.581044,-4.519572],[-47.67951,-4.608241],[-47.789489,-4.585147],[-48.754713,-5.348801],[-48.384303,-5.393838],[-48.137715,-5.60232],[-48.294112,-5.756302],[-48.231193,-5.945764],[-48.334277,-6.003902],[-48.291684,-6.103692],[-48.431498,-6.176918],[-48.382239,-6.379232],[-48.499774,-6.350551],[-48.612713,-6.453351],[-48.664412,-6.662383],[-49.20905,-6.92502],[-49.184836,-7.234789],[-49.383604,-7.543108],[-49.150136,-7.80181],[-49.215405,-8.193821],[-49.591958,-8.839096],[-49.744634,-8.905768],[-50.03733,-9.289006],[-50.224346,-9.840752],[-56.753757,-9.405974],[-56.819594,-9.245953],[-57.057311,-9.183803],[-57.038728,-9.097904],[-57.192341,-8.929666],[-57.592418,-8.756092],[-57.686332,-8.413677],[-57.642751,-8.213293],[-58.209,-7.133889],[-58.434032,-6.908436],[-58.477949,-6.699242],[-58.262031,-6.468555],[-56.401654,-2.456277],[-56.46509,-2.422775],[-56.098136,-2.026721],[-56.678565,-2.212225],[-56.768032,-2.165412],[-56.734026,-2.021675],[-57.036699,-1.911216],[-57.16439,-1.720534],[-57.392176,-1.722738],[-57.959836,-1.40124],[-58.01703,-1.105819],[-58.162129,-1.229325],[-58.429563,-1.026786],[-58.435532,-0.883137],[-58.704659,-0.678644],[-58.724697,-0.441895],[-58.871545,-0.342665],[-58.894945,1.228228],[-58.82061,1.171512],[-58.704891,1.294114],[-58.495734,1.26844],[-58.508204,1.463278],[-58.385099,1.470425],[-58.321878,1.597452],[-58.003746,1.503541],[-57.989467,1.659704],[-57.537135,1.70097],[-57.304317,1.999631],[-57.230489,1.938406],[-57.08611,2.028142],[-57.01368,1.915384],[-56.790787,1.852932],[-56.450686,1.956653],[-55.955976,1.845104],[-55.90252,2.041604],[-56.13831,2.266264],[-56.089445,2.372862],[-56.021256,2.343035],[-55.977581,2.527837],[-55.717271,2.402475],[-55.384796,2.418866],[-55.345079,2.448452],[-55.35566,2.476019],[-55.319683,2.515833],[-54.953708,2.584086],[-54.76262,2.202624],[-54.81234,2.06312],[-54.744288,1.776109],[-54.308816,1.74136],[-54.143178,1.640923],[-54.08598,1.488609],[-53.649819,1.408565],[-53.650483,1.336535],[-53.538067,1.341175],[-53.535535,1.212585],[-53.42604,1.243034],[-53.411014,0.92966],[-53.105819,0.6843],[-53.174834,0.382038],[-52.933229,-0.139195],[-52.689648,-0.302593],[-52.639535,-0.584576],[-52.522704,-0.588746],[-52.538185,-0.854477],[-52.402686,-0.876817],[-52.426566,-1.050463],[-52.119791,-1.145867],[-52.099932,-1.226163],[-51.703871,-1.067409],[-51.67874,-0.784922],[-51.2159,-0.11829],[-50.667739,0.185354],[-50.436091,0.600423],[-50.156987,0.70543],[-50.040352,0.573856],[-50.0608,0.338753],[-49.677186,0.366293],[-49.396517,0.016074],[-48.930268,-0.225598],[-48.411823,-0.25691],[-48.472118,-0.498754],[-47.989322,-0.705722],[-47.897163,-0.552474],[-47.840546,-0.679886],[-47.814405,-0.560839],[-47.767092,-0.637269],[-47.70349,-0.534923],[-47.626024,-0.700966],[-47.541945,-0.604323],[-47.487638,-0.764604],[-47.443907,-0.588893],[-47.42512,-0.655008],[-47.212107,-0.63721],[-47.243292,-0.706864],[-47.160609,-0.667422],[-47.16969,-0.776182],[-47.088272,-0.662312],[-47.057276,-0.805873],[-46.951454,-0.73406]]],[[[-46.401363,-0.952301],[-46.404448,-0.957065],[-46.407277,-0.955995],[-46.409881,-0.964372],[-46.411643,-0.970087],[-46.437021,-0.986082],[-46.435412,-0.977743],[-46.433277,-0.966676],[-46.428807,-0.961551],[-46.424895,-0.957065],[-46.416698,-0.947668],[-46.414047,-0.944485],[-46.415317,-0.936494],[-46.415942,-0.932222],[-46.407815,-0.929826],[-46.402266,-0.932553],[-46.398546,-0.938556],[-46.395896,-0.942984],[-46.398971,-0.948577],[-46.401363,-0.952301]]],[[[-46.075076,-1.066854],[-46.070696,-1.069081],[-46.06053,-1.094368],[-46.066208,-1.104784],[-46.068177,-1.099447],[-46.068274,-1.099183],[-46.069084,-1.096987],[-46.069761,-1.096321],[-46.072671,-1.093458],[-46.084579,-1.081738],[-46.088277,-1.073085],[-46.090328,-1.068593],[-46.087877,-1.060935],[-46.082487,-1.05819],[-46.081747,-1.057813],[-46.072106,-1.061236],[-46.075076,-1.066854]]],[[[-47.034094,-0.695061],[-47.034062,-0.691846],[-47.029786,-0.691695],[-47.023853,-0.691486],[-47.023133,-0.696691],[-47.013667,-0.694488],[-47.005058,-0.700323],[-47.010334,-0.701763],[-47.016899,-0.703516],[-47.022108,-0.704907],[-47.027517,-0.706351],[-47.033167,-0.70786],[-47.033841,-0.700474],[-47.034094,-0.695061]]],[[[-46.375097,-0.995855],[-46.374997,-1.004114],[-46.374913,-1.011076],[-46.380828,-1.012994],[-46.384078,-1.007111],[-46.383726,-1.003399],[-46.382842,-0.994096],[-46.374138,-0.987214],[-46.370383,-0.991077],[-46.375097,-0.995855]]],[[[-47.843037,-0.662354],[-47.841213,-0.657675],[-47.83305,-0.653774],[-47.831329,-0.658958],[-47.833345,-0.661574],[-47.836476,-0.661253],[-47.836915,-0.666395],[-47.840392,-0.668537],[-47.843037,-0.662354]]],[[[-46.444238,-1.009881],[-46.446052,-1.010024],[-46.450461,-1.009052],[-46.437249,-1.001111],[-46.435015,-1.003674],[-46.435544,-1.007926],[-46.435704,-1.009207],[-46.444238,-1.009881]]],[[[-46.326679,-0.95029],[-46.322638,-0.944943],[-46.316544,-0.946124],[-46.3154,-0.950014],[-46.318749,-0.948975],[-46.322321,-0.95117],[-46.318279,-0.953877],[-46.323167,-0.956256],[-46.326679,-0.95029]]],[[[-46.607768,-0.830816],[-46.606069,-0.825219],[-46.600921,-0.826208],[-46.600328,-0.830136],[-46.605258,-0.832489],[-46.607768,-0.830816]]],[[[-46.608153,-0.8589],[-46.606451,-0.853306],[-46.601308,-0.854295],[-46.600713,-0.858223],[-46.605643,-0.860574],[-46.608153,-0.8589]]],[[[-47.034742,-0.720384],[-47.042967,-0.72202],[-47.044168,-0.719306],[-47.04083,-0.718531],[-47.037061,-0.716658],[-47.032222,-0.71799],[-47.034742,-0.720384]]],[[[-46.467967,-0.963936],[-46.474997,-0.96422],[-46.468828,-0.957717],[-46.465051,-0.959526],[-46.467967,-0.963936]]],[[[-46.20639,-0.940794],[-46.202712,-0.936364],[-46.198958,-0.940309],[-46.20639,-0.940794]]],[[[-46.954245,-0.740374],[-46.951454,-0.73406],[-46.949257,-0.738724],[-46.954245,-0.740374]]],[[[-47.021708,-0.715428],[-47.016829,-0.713164],[-47.018746,-0.717506],[-47.021708,-0.715428]]],[[[-46.270059,-0.933488],[-46.265775,-0.93288],[-46.267082,-0.936436],[-46.270059,-0.933488]]]]},"properties":{"id":14,"name":"Pará","sigla":"PA","regiao_id":"3","codigo_ibg":"15","cartodb_id":14,"created_at":"2015-02-09T16:46:01Z","updated_at":"2015-02-09T16:46:01Z"}},{"type":"Feature","geometry":{"type":"MultiPolygon","coordinates":[[[[-37.226774,-6.034636],[-37.156526,-6.152054],[-37.37692,-6.343988],[-37.4843,-6.709643],[-37.283311,-6.69352],[-37.234195,-6.82424],[-37.001796,-6.709172],[-36.956723,-6.79008],[-36.834611,-6.730674],[-36.718142,-6.982333],[-36.506515,-6.812625],[-36.524114,-6.599256],[-36.435425,-6.625481],[-36.52875,-6.446724],[-36.39413,-6.29358],[-36.279444,-6.308456],[-36.249331,-6.436963],[-36.079565,-6.404793],[-35.977186,-6.488506],[-35.657922,-6.445571],[-35.169792,-6.557986],[-34.970505,-6.484991],[-34.793112,-7.154081],[-34.825666,-7.547367],[-34.960248,-7.538346],[-35.079369,-7.396621],[-35.478965,-7.444647],[-35.532311,-7.654416],[-35.99758,-7.812906],[-36.42361,-7.81537],[-36.445303,-7.915306],[-36.610859,-7.94775],[-36.62817,-8.110641],[-36.99074,-8.302552],[-37.16319,-8.165366],[-37.192267,-7.960197],[-37.355461,-7.974525],[-37.151544,-7.779445],[-37.167536,-7.581462],[-36.983824,-7.481724],[-37.23253,-7.274732],[-37.496522,-7.367137],[-37.738356,-7.659808],[-37.858093,-7.653228],[-38.076734,-7.830163],[-38.286401,-7.829822],[-38.357099,-7.676781],[-38.593231,-7.753951],[-38.717917,-7.608957],[-38.534205,-7.293397],[-38.687448,-7.189766],[-38.66947,-7.047311],[-38.76462,-6.993504],[-38.613774,-6.782794],[-38.67277,-6.696831],[-38.517528,-6.408346],[-38.601666,-6.389237],[-38.45723,-6.329322],[-38.48585,-6.398363],[-38.115253,-6.521298],[-37.757271,-6.290385],[-37.74881,-6.193441],[-37.226774,-6.034636]]],[[[-34.861633,-6.982025],[-34.856522,-6.983376],[-34.850172,-6.982006],[-34.847864,-6.981508],[-34.847366,-6.983874],[-34.847013,-6.985548],[-34.84932,-6.999571],[-34.852371,-7.006717],[-34.855448,-7.011257],[-34.859892,-7.013618],[-34.862033,-7.010575],[-34.864566,-7.005357],[-34.866066,-6.998318],[-34.866544,-6.995168],[-34.867212,-6.991403],[-34.867128,-6.987133],[-34.86458,-6.980776],[-34.861633,-6.982025]]]]},"properties":{"id":15,"name":"Paraíba","sigla":"PB","regiao_id":"4","codigo_ibg":"25","cartodb_id":15,"created_at":"2015-02-09T16:46:01Z","updated_at":"2015-02-09T16:46:01Z"}},{"type":"Feature","geometry":{"type":"MultiPolygon","coordinates":[[[[-37.176537,-7.309168],[-36.983824,-7.481724],[-37.167536,-7.581462],[-37.151544,-7.779445],[-37.355461,-7.974525],[-37.192267,-7.960197],[-37.16319,-8.165366],[-36.99074,-8.302552],[-36.62817,-8.110641],[-36.610859,-7.94775],[-36.445303,-7.915306],[-36.42361,-7.81537],[-35.99758,-7.812906],[-35.532311,-7.654416],[-35.478965,-7.444647],[-35.079369,-7.396621],[-34.960248,-7.538346],[-34.839815,-7.54331],[-34.837298,-8.00571],[-35.152043,-8.912951],[-35.467076,-8.814569],[-35.747919,-8.916723],[-35.895731,-8.853841],[-36.126455,-8.955591],[-36.266392,-9.101956],[-36.224498,-9.170589],[-36.603786,-9.340622],[-36.867795,-9.268107],[-36.952008,-9.38212],[-37.105852,-9.239376],[-37.23392,-9.239747],[-37.48985,-8.965277],[-37.698445,-8.992052],[-37.759906,-8.857214],[-38.237084,-9.329271],[-38.295991,-9.02249],[-38.483023,-9.001073],[-38.47945,-8.849688],[-38.570844,-8.831192],[-38.640324,-8.986867],[-38.798427,-8.792369],[-39.22347,-8.710925],[-39.383353,-8.533223],[-39.690755,-8.661922],[-39.691468,-8.79681],[-39.894253,-8.831304],[-39.957648,-9.048202],[-40.250327,-9.060099],[-40.334654,-9.353473],[-40.622789,-9.482496],[-40.776329,-9.454027],[-40.667025,-9.158669],[-40.819607,-9.079993],[-40.920958,-8.835043],[-41.02086,-8.843156],[-41.113256,-8.703597],[-41.357936,-8.707229],[-40.589405,-8.137576],[-40.54336,-7.835174],[-40.673179,-7.761288],[-40.712873,-7.472851],[-40.548081,-7.392315],[-40.24606,-7.433332],[-39.662188,-7.310208],[-39.317183,-7.540886],[-39.30651,-7.664686],[-39.135257,-7.722986],[-39.090918,-7.857785],[-38.965739,-7.84459],[-38.714717,-7.62152],[-38.593231,-7.753951],[-38.357099,-7.676781],[-38.286401,-7.829822],[-38.076734,-7.830163],[-37.858093,-7.653228],[-37.738356,-7.659808],[-37.496522,-7.367137],[-37.176537,-7.309168]]],[[[-32.407145,-3.837767],[-32.400572,-3.836927],[-32.397877,-3.842501],[-32.39621,-3.845947],[-32.394757,-3.849166],[-32.390875,-3.85136],[-32.396018,-3.852071],[-32.396523,-3.856069],[-32.400105,-3.856244],[-32.408087,-3.856228],[-32.409429,-3.8599],[-32.410818,-3.864108],[-32.416272,-3.86329],[-32.416656,-3.863232],[-32.417253,-3.864337],[-32.419527,-3.868548],[-32.421521,-3.867763],[-32.426108,-3.865958],[-32.42443,-3.868982],[-32.422967,-3.87162],[-32.424411,-3.878278],[-32.427822,-3.871371],[-32.431896,-3.871045],[-32.438871,-3.870643],[-32.44175,-3.870477],[-32.444637,-3.871943],[-32.449985,-3.874659],[-32.453165,-3.876273],[-32.456611,-3.878024],[-32.456917,-3.881222],[-32.461364,-3.877473],[-32.463916,-3.880033],[-32.467645,-3.87736],[-32.460083,-3.8725],[-32.455394,-3.864149],[-32.447285,-3.861803],[-32.446196,-3.854807],[-32.442593,-3.850523],[-32.435619,-3.847986],[-32.434621,-3.847623],[-32.407145,-3.837767]]],[[[-32.400572,-3.836927],[-32.399979,-3.831928],[-32.398484,-3.830606],[-32.397345,-3.833368],[-32.400572,-3.836927]]]]},"properties":{"id":16,"name":"Pernambuco","sigla":"PE","regiao_id":"4","codigo_ibg":"26","cartodb_id":16,"created_at":"2015-02-09T16:46:01Z","updated_at":"2015-02-09T16:46:01Z"}},{"type":"Feature","geometry":{"type":"MultiPolygon","coordinates":[[[[-41.738679,-2.805583],[-41.25675,-3.004292],[-41.423139,-3.367652],[-41.298837,-3.490666],[-41.34137,-3.680416],[-41.239101,-3.712209],[-41.300438,-3.825942],[-41.254308,-4.035393],[-41.114012,-4.040281],[-41.090514,-4.169968],[-41.242161,-4.571146],[-41.173903,-4.667095],[-41.248798,-4.868725],[-40.925133,-5.181109],[-40.906727,-6.041363],[-40.731554,-6.653683],[-40.37021,-6.802665],[-40.548081,-7.392315],[-40.712873,-7.472851],[-40.673179,-7.761288],[-40.54336,-7.835174],[-40.589405,-8.137576],[-41.38196,-8.708455],[-41.544135,-8.960144],[-41.72322,-9.013136],[-41.837579,-9.241864],[-42.24334,-9.28851],[-42.764775,-9.616339],[-42.945855,-9.518006],[-42.971497,-9.407654],[-43.278369,-9.424166],[-43.485058,-9.26488],[-43.849292,-9.547644],[-43.784519,-9.761973],[-43.652847,-9.838644],[-43.661876,-10.003925],[-44.129818,-10.632552],[-44.335243,-10.548554],[-44.577371,-10.626353],[-44.930806,-10.928339],[-45.247635,-10.821551],[-45.435502,-10.61946],[-45.396019,-10.446486],[-45.578933,-10.121524],[-45.793325,-10.267263],[-45.954872,-10.218032],[-45.783406,-9.479703],[-45.993873,-8.926466],[-45.765218,-8.609179],[-45.496078,-7.749908],[-45.339354,-7.579855],[-44.924034,-7.4699],[-44.816324,-7.360815],[-44.687572,-7.394145],[-44.563663,-7.227144],[-44.305797,-7.116782],[-44.052969,-6.767926],[-43.715621,-6.698807],[-43.419644,-6.843448],[-42.919385,-6.669924],[-42.828943,-6.337041],[-43.074595,-6.054348],[-43.098607,-5.632817],[-42.825925,-5.346574],[-42.797558,-5.182848],[-42.949395,-4.790325],[-42.85005,-4.480991],[-42.988804,-4.233691],[-42.497976,-3.447375],[-42.20399,-3.435414],[-41.823894,-3.024143],[-41.848666,-2.773167],[-41.738679,-2.805583]]]]},"properties":{"id":17,"name":"Piauí","sigla":"PI","regiao_id":"4","codigo_ibg":"22","cartodb_id":17,"created_at":"2015-02-09T16:46:01Z","updated_at":"2015-02-09T16:46:01Z"}},{"type":"Feature","geometry":{"type":"MultiPolygon","coordinates":[[[[-52.064157,-22.533836],[-51.559066,-22.696696],[-51.263287,-22.66857],[-50.890392,-22.795326],[-50.741095,-22.960908],[-50.661794,-22.895208],[-50.182844,-22.95327],[-49.985672,-22.897021],[-49.911112,-23.050628],[-49.726584,-23.107902],[-49.566613,-23.426741],[-49.610245,-23.851198],[-49.200279,-24.343974],[-49.304824,-24.672141],[-48.581366,-24.671118],[-48.498829,-24.73846],[-48.555859,-25.083793],[-48.410589,-24.979624],[-48.333188,-25.070067],[-48.251197,-24.978246],[-48.186718,-25.198397],[-48.02308,-25.230467],[-48.438688,-25.654056],[-48.590417,-25.976436],[-49.174795,-26.001348],[-49.554595,-26.236831],[-49.941727,-26.008382],[-50.25103,-26.029735],[-50.323111,-26.134443],[-50.571305,-26.0033],[-50.718005,-26.244286],[-51.08267,-26.227889],[-51.242771,-26.32357],[-51.297305,-26.41897],[-51.228168,-26.615517],[-51.411026,-26.71679],[-51.509564,-26.581689],[-51.873106,-26.599744],[-52.185149,-26.444918],[-52.737252,-26.341682],[-53.090101,-26.390009],[-53.280969,-26.246701],[-53.551168,-26.292261],[-53.833534,-25.970366],[-53.892053,-25.622098],[-54.078793,-25.558622],[-54.098311,-25.618256],[-54.099163,-25.494904],[-54.177977,-25.584268],[-54.378146,-25.594379],[-54.429093,-25.694822],[-54.593079,-25.591815],[-54.617326,-25.452526],[-54.429612,-25.158893],[-54.441297,-24.948607],[-54.257592,-24.36236],[-54.340948,-24.128722],[-54.099323,-23.945986],[-53.982333,-23.459527],[-53.730098,-23.317225],[-53.6069,-22.950856],[-52.971909,-22.570007],[-52.701168,-22.626991],[-52.662436,-22.611381],[-52.60274,-22.570728],[-52.586219,-22.56604],[-52.222989,-22.673825],[-52.064157,-22.533836]]]]},"properties":{"id":18,"name":"Paraná","sigla":"PR","regiao_id":"1","codigo_ibg":"41","cartodb_id":18,"created_at":"2015-02-09T16:46:01Z","updated_at":"2015-02-09T16:46:01Z"}},{"type":"Feature","geometry":{"type":"MultiPolygon","coordinates":[[[[-44.512726,-23.292935],[-44.723999,-23.367601],[-44.874618,-23.248662],[-44.802203,-22.998642],[-44.269527,-22.829798],[-44.160514,-22.677824],[-44.383979,-22.573224],[-44.633017,-22.60873],[-44.79328,-22.386588],[-43.76557,-22.062424],[-43.246126,-22.006538],[-43.072998,-22.093352],[-42.271127,-21.714706],[-42.368575,-21.619118],[-42.080057,-21.035198],[-42.151261,-20.973889],[-41.976257,-20.935011],[-41.874501,-20.766324],[-41.711998,-20.871073],[-41.717586,-21.123331],[-40.957184,-21.302959],[-41.073653,-21.514831],[-40.984671,-21.999235],[-41.68861,-22.299597],[-41.960365,-22.534191],[-41.984635,-22.717287],[-41.863681,-22.754041],[-42.030855,-22.904252],[-42.012857,-22.997335],[-42.517282,-22.93206],[-43.0515,-22.982245],[-43.1353,-22.938257],[-43.026441,-22.741777],[-43.085418,-22.677155],[-43.288201,-22.800363],[-43.156645,-22.912346],[-43.18096,-22.98562],[-43.55311,-23.075581],[-43.711437,-23.055581],[-43.580017,-23.040467],[-43.836363,-22.903085],[-44.193734,-23.054365],[-44.411845,-22.94136],[-44.430729,-23.020322],[-44.690325,-23.08257],[-44.71216,-23.233387],[-44.642933,-23.185336],[-44.655376,-23.295325],[-44.559892,-23.227086],[-44.512726,-23.292935]],[[-43.359794,-22.993309],[-43.351032,-22.993442],[-43.344195,-22.994415],[-43.33123,-22.995298],[-43.323771,-22.995756],[-43.322115,-23.000277],[-43.31295,-23.001798],[-43.310691,-23.006033],[-43.306747,-23.007277],[-43.301464,-23.008986],[-43.305763,-23.000707],[-43.315429,-22.996979],[-43.320997,-22.995169],[-43.323257,-22.990189],[-43.331017,-22.989758],[-43.333954,-22.989595],[-43.342396,-22.981816],[-43.347606,-22.97979],[-43.350277,-22.97875],[-43.355471,-22.97673],[-43.363477,-22.973616],[-43.375978,-22.975617],[-43.379795,-22.974475],[-43.382643,-22.973603],[-43.393925,-22.983212],[-43.397015,-22.980502],[-43.40353,-22.974789],[-43.405642,-22.979379],[-43.408395,-22.982438],[-43.412473,-22.985408],[-43.41243,-22.989197],[-43.407237,-22.991952],[-43.390234,-22.988072],[-43.3889,-22.993119],[-43.385515,-22.989432],[-43.387293,-22.982578],[-43.384447,-22.980494],[-43.380805,-22.97793],[-43.376944,-22.978312],[-43.372845,-22.978782],[-43.364882,-22.979524],[-43.352988,-22.981057],[-43.348814,-22.983608],[-43.353285,-22.985401],[-43.349593,-22.987344],[-43.34655,-22.991818],[-43.351032,-22.993442],[-43.357645,-22.989742],[-43.359794,-22.993309]]],[[[-44.233217,-23.089435],[-44.095011,-23.174667],[-44.348763,-23.226125],[-44.377253,-23.171793],[-44.233217,-23.089435]]],[[[-43.827899,-23.057298],[-43.820133,-23.05808],[-43.816352,-23.058462],[-43.804595,-23.059646],[-43.793564,-23.060758],[-43.777995,-23.060451],[-43.810451,-23.065498],[-43.818274,-23.066506],[-43.858795,-23.071733],[-43.955403,-23.087511],[-43.970103,-23.094286],[-43.978855,-23.09836],[-43.982599,-23.100102],[-43.986382,-23.10176],[-43.995779,-23.100484],[-43.997755,-23.096264],[-44.003352,-23.094185],[-44.008042,-23.09261],[-44.008195,-23.088596],[-44.007928,-23.081602],[-44.012122,-23.077813],[-44.006299,-23.070849],[-43.99965,-23.072146],[-43.993301,-23.067425],[-43.990734,-23.05681],[-43.987706,-23.057721],[-43.984287,-23.058813],[-43.981569,-23.055523],[-43.978613,-23.051501],[-43.9739,-23.045088],[-43.965964,-23.042823],[-43.962712,-23.041895],[-43.958835,-23.04079],[-43.954798,-23.039639],[-43.948678,-23.048532],[-43.934401,-23.055404],[-43.931457,-23.056821],[-43.925152,-23.057176],[-43.918847,-23.05753],[-43.918494,-23.057707],[-43.899573,-23.06723],[-43.898787,-23.067626],[-43.894775,-23.067472],[-43.888707,-23.067239],[-43.884677,-23.067013],[-43.880066,-23.062915],[-43.877822,-23.060843],[-43.877702,-23.057459],[-43.877602,-23.051327],[-43.877535,-23.047264],[-43.880567,-23.041434],[-43.888214,-23.037721],[-43.902523,-23.030775],[-43.907112,-23.026079],[-43.896561,-23.030261],[-43.893303,-23.031553],[-43.864233,-23.044111],[-43.857646,-23.046501],[-43.83782,-23.053697],[-43.834001,-23.055083],[-43.827899,-23.057298]]],[[[-43.182492,-22.781033],[-43.178326,-22.782021],[-43.174718,-22.77695],[-43.172052,-22.775893],[-43.170866,-22.782424],[-43.168366,-22.779818],[-43.165511,-22.776667],[-43.157083,-22.778246],[-43.156891,-22.782247],[-43.156698,-22.786297],[-43.166867,-22.791728],[-43.171416,-22.795267],[-43.17503,-22.798134],[-43.181247,-22.803067],[-43.177451,-22.80615],[-43.176873,-22.809387],[-43.175505,-22.817036],[-43.175032,-22.819681],[-43.170479,-22.820868],[-43.164243,-22.822494],[-43.16777,-22.826413],[-43.169759,-22.828612],[-43.172105,-22.830299],[-43.175679,-22.823952],[-43.175741,-22.823842],[-43.177153,-22.825289],[-43.184757,-22.833077],[-43.186802,-22.828798],[-43.189174,-22.823636],[-43.190486,-22.820778],[-43.203754,-22.819403],[-43.209409,-22.814823],[-43.215461,-22.816626],[-43.218751,-22.817652],[-43.221549,-22.818525],[-43.226368,-22.820028],[-43.230166,-22.823174],[-43.232616,-22.825203],[-43.242993,-22.83227],[-43.248479,-22.829065],[-43.246665,-22.825033],[-43.253054,-22.821666],[-43.258235,-22.818945],[-43.260616,-22.815611],[-43.263556,-22.810152],[-43.263,-22.809369],[-43.261452,-22.80719],[-43.259104,-22.803884],[-43.254748,-22.805961],[-43.251124,-22.807689],[-43.243781,-22.807037],[-43.243301,-22.800142],[-43.241395,-22.798401],[-43.235461,-22.79298],[-43.229483,-22.787516],[-43.228902,-22.782686],[-43.217752,-22.785228],[-43.214246,-22.788417],[-43.207985,-22.794112],[-43.191392,-22.795934],[-43.188372,-22.794049],[-43.189099,-22.788189],[-43.189293,-22.786622],[-43.186117,-22.783812],[-43.182492,-22.781033]]],[[[-43.913351,-22.93897],[-43.912616,-22.936935],[-43.911716,-22.934441],[-43.907388,-22.932426],[-43.90402,-22.930865],[-43.901286,-22.929697],[-43.89711,-22.931517],[-43.893362,-22.933089],[-43.89202,-22.928172],[-43.886226,-22.930474],[-43.884256,-22.927073],[-43.881871,-22.923852],[-43.879858,-22.924096],[-43.876917,-22.924452],[-43.867707,-22.925566],[-43.877675,-22.940379],[-43.874935,-22.94138],[-43.876293,-22.945869],[-43.872909,-22.946947],[-43.879645,-22.950171],[-43.884018,-22.947635],[-43.887848,-22.950825],[-43.891046,-22.953475],[-43.896254,-22.95779],[-43.905523,-22.957797],[-43.909454,-22.955405],[-43.907565,-22.951488],[-43.905503,-22.947217],[-43.908539,-22.944705],[-43.912103,-22.942005],[-43.913351,-22.93897]]],[[[-43.23788,-22.861561],[-43.235196,-22.857073],[-43.237776,-22.850513],[-43.240452,-22.843664],[-43.241167,-22.840778],[-43.242566,-22.837137],[-43.234809,-22.83902],[-43.229021,-22.836474],[-43.225983,-22.838113],[-43.223277,-22.839572],[-43.223287,-22.843911],[-43.225974,-22.841207],[-43.227282,-22.842013],[-43.232207,-22.845044],[-43.230926,-22.85039],[-43.230282,-22.851017],[-43.226208,-22.854984],[-43.223227,-22.857887],[-43.219137,-22.859002],[-43.217701,-22.862585],[-43.214119,-22.866225],[-43.215621,-22.869973],[-43.216216,-22.869887],[-43.22059,-22.869253],[-43.221908,-22.86537],[-43.230871,-22.865768],[-43.232964,-22.861782],[-43.23788,-22.861561]]],[[[-43.929349,-23.006708],[-43.934009,-23.014671],[-43.936907,-23.004451],[-43.936714,-22.997796],[-43.931305,-22.995268],[-43.927727,-22.988872],[-43.920048,-22.987259],[-43.916896,-22.9933],[-43.925471,-22.999957],[-43.929349,-23.006708]]],[[[-44.588209,-23.20618],[-44.583765,-23.20366],[-44.585916,-23.209049],[-44.58808,-23.211014],[-44.599103,-23.216787],[-44.602603,-23.222559],[-44.613089,-23.22373],[-44.618563,-23.222691],[-44.619277,-23.222556],[-44.618842,-23.22234],[-44.60445,-23.215234],[-44.593695,-23.202173],[-44.588209,-23.20618]]],[[[-44.045854,-22.999599],[-44.039323,-22.997486],[-44.034458,-22.995913],[-44.030839,-23.003928],[-44.029526,-23.00689],[-44.037728,-23.010732],[-44.042448,-23.005878],[-44.047052,-23.010665],[-44.049172,-23.008254],[-44.052137,-23.004693],[-44.049156,-23.000667],[-44.045854,-22.999599]]],[[[-44.687442,-23.164206],[-44.691804,-23.169414],[-44.694983,-23.160278],[-44.694141,-23.155953],[-44.689511,-23.154003],[-44.683615,-23.151634],[-44.681724,-23.157219],[-44.687442,-23.164206]]],[[[-41.698311,-22.410062],[-41.694879,-22.416666],[-41.702165,-22.416268],[-41.705353,-22.410424],[-41.70541,-22.407224],[-41.697103,-22.402875],[-41.693611,-22.407255],[-41.698311,-22.410062]]],[[[-44.512726,-23.292935],[-44.50518,-23.291396],[-44.502444,-23.29635],[-44.50933,-23.301351],[-44.512726,-23.292935]]],[[[-43.110533,-22.761512],[-43.10855,-22.758473],[-43.104749,-22.76231],[-43.102821,-22.764684],[-43.108429,-22.769262],[-43.112834,-22.767346],[-43.110533,-22.761512]]],[[[-43.10855,-22.758473],[-43.111782,-22.753285],[-43.10829,-22.747727],[-43.104397,-22.748391],[-43.102875,-22.75266],[-43.105024,-22.755155],[-43.10855,-22.758473]]],[[[-43.177351,-22.895572],[-43.174609,-22.892784],[-43.166958,-22.895035],[-43.171695,-22.897727],[-43.177351,-22.895572]]],[[[-44.644679,-23.073814],[-44.642328,-23.067874],[-44.640043,-23.069714],[-44.635569,-23.067957],[-44.641607,-23.074504],[-44.644679,-23.073814]]],[[[-43.861178,-22.952425],[-43.860183,-22.949594],[-43.855924,-22.949816],[-43.857964,-22.954501],[-43.863357,-22.955275],[-43.861178,-22.952425]]],[[[-41.686751,-22.401743],[-41.690366,-22.402326],[-41.691219,-22.398672],[-41.685683,-22.396626],[-41.686751,-22.401743]]],[[[-44.583765,-23.20366],[-44.583711,-23.200515],[-44.580463,-23.198522],[-44.579133,-23.203001],[-44.583765,-23.20366]]],[[[-44.576304,-23.185972],[-44.573066,-23.18351],[-44.57284,-23.18893],[-44.576376,-23.189839],[-44.576304,-23.185972]]],[[[-43.909974,-22.983026],[-43.912946,-22.98303],[-43.914255,-22.979799],[-43.908054,-22.979438],[-43.909974,-22.983026]]],[[[-44.64635,-23.226778],[-44.639698,-23.228174],[-44.649005,-23.23063],[-44.64635,-23.226778]]],[[[-41.886592,-22.776935],[-41.883796,-22.780103],[-41.882438,-22.782728],[-41.881836,-22.783893],[-41.883694,-22.784159],[-41.884995,-22.784346],[-41.886592,-22.776935]]],[[[-44.129227,-23.035366],[-44.123726,-23.039621],[-44.128785,-23.040825],[-44.129227,-23.035366]]],[[[-43.920054,-22.941608],[-43.913351,-22.93897],[-43.916081,-22.942141],[-43.920396,-22.944507],[-43.920054,-22.941608]]],[[[-43.514413,-23.065268],[-43.511404,-23.060728],[-43.508372,-23.064533],[-43.514413,-23.065268]]],[[[-43.148184,-23.059917],[-43.142212,-23.065399],[-43.146738,-23.065053],[-43.148184,-23.059917]]],[[[-44.639698,-23.228174],[-44.636513,-23.223835],[-44.633615,-23.225338],[-44.639698,-23.228174]]],[[[-43.943721,-23.023293],[-43.946962,-23.023859],[-43.943681,-23.019612],[-43.943721,-23.023293]]],[[[-44.692811,-23.215421],[-44.689403,-23.214393],[-44.69085,-23.217979],[-44.692811,-23.215421]]],[[[-43.953848,-23.004999],[-43.950219,-23.005693],[-43.951708,-23.008218],[-43.953848,-23.004999]]],[[[-43.207898,-23.040543],[-43.206316,-23.037953],[-43.202163,-23.037408],[-43.207898,-23.040543]]],[[[-44.672432,-23.099449],[-44.671866,-23.09621],[-44.669117,-23.097726],[-44.672432,-23.099449]]],[[[-43.953679,-23.025037],[-43.952735,-23.022101],[-43.950736,-23.024879],[-43.953679,-23.025037]]],[[[-43.861226,-22.946858],[-43.860183,-22.949594],[-43.863235,-22.949314],[-43.861226,-22.946858]]],[[[-44.675081,-23.111113],[-44.672353,-23.111869],[-44.674697,-23.11399],[-44.675081,-23.111113]]]]},"properties":{"id":19,"name":"Rio de Janeiro","sigla":"RJ","regiao_id":"2","codigo_ibg":"33","cartodb_id":19,"created_at":"2015-02-09T16:46:01Z","updated_at":"2015-02-09T16:46:01Z"}},{"type":"Feature","geometry":{"type":"MultiPolygon","coordinates":[[[[-37.151721,-4.935362],[-36.962159,-4.919381],[-36.689467,-5.091868],[-35.974274,-5.04165],[-35.488629,-5.157973],[-35.260708,-5.480447],[-34.969063,-6.487837],[-35.169792,-6.557986],[-35.657922,-6.445571],[-35.977186,-6.488506],[-36.079565,-6.404793],[-36.249331,-6.436963],[-36.279444,-6.308456],[-36.39413,-6.29358],[-36.52875,-6.446724],[-36.435425,-6.625481],[-36.524114,-6.599256],[-36.506515,-6.812625],[-36.718142,-6.982333],[-36.834611,-6.730674],[-36.956723,-6.79008],[-37.001796,-6.709172],[-37.234195,-6.82424],[-37.283311,-6.69352],[-37.4843,-6.709643],[-37.482732,-6.550019],[-37.165279,-6.169986],[-37.173524,-6.047629],[-37.74881,-6.193441],[-37.757271,-6.290385],[-38.115253,-6.521298],[-38.48585,-6.398363],[-38.45723,-6.329322],[-38.576694,-6.347042],[-38.446934,-6.084893],[-38.276625,-6.069567],[-38.124554,-5.887229],[-38.082335,-5.672168],[-37.901598,-5.497133],[-37.639945,-4.926029],[-37.251574,-4.832043],[-37.151721,-4.935362]]]]},"properties":{"id":20,"name":"Rio Grande do Norte","sigla":"RN","regiao_id":"4","codigo_ibg":"24","cartodb_id":20,"created_at":"2015-02-09T16:46:01Z","updated_at":"2015-02-09T16:46:01Z"}},{"type":"Feature","geometry":{"type":"MultiPolygon","coordinates":[[[[-66.458886,-9.87524],[-66.805966,-9.814127],[-66.50022,-9.633167],[-66.408458,-9.406552],[-65.969866,-9.412766],[-65.79108,-9.585253],[-65.596321,-9.413476],[-65.434254,-9.465947],[-65.446554,-9.31599],[-65.246189,-9.257276],[-65.184149,-9.426604],[-65.097373,-9.43213],[-64.838837,-8.993728],[-64.142924,-8.953151],[-64.142558,-8.742652],[-63.924056,-8.575147],[-63.943608,-8.330811],[-63.77299,-8.320355],[-63.620267,-7.968921],[-63.552474,-7.972881],[-63.50001,-7.975946],[-62.866087,-7.975496],[-62.69175,-8.092534],[-62.525603,-8.382677],[-62.366551,-8.389222],[-62.340551,-8.602451],[-62.187856,-8.590182],[-62.124437,-8.801291],[-61.905349,-8.874129],[-61.712737,-8.687474],[-61.468111,-8.917145],[-61.525876,-9.243674],[-61.632006,-9.266243],[-61.477057,-9.626913],[-61.573828,-9.71728],[-61.507378,-9.860696],[-61.59965,-10.154439],[-61.461237,-10.41952],[-61.549712,-10.985703],[-60.459516,-10.989463],[-60.347429,-11.108644],[-59.986314,-11.11412],[-59.920097,-11.397613],[-60.114345,-11.591064],[-60.108231,-11.839182],[-59.984634,-11.913945],[-59.891778,-12.245054],[-59.885808,-12.24507],[-59.831304,-12.291539],[-59.773813,-12.340553],[-60.068196,-12.615595],[-60.078571,-12.880736],[-60.282449,-13.080147],[-60.387376,-13.454285],[-60.70778,-13.692483],[-61.014275,-13.487077],[-61.840376,-13.54837],[-62.169835,-13.113468],[-62.391395,-13.134294],[-62.650176,-12.965127],[-62.778397,-13.009093],[-63.15717,-12.613427],[-63.294905,-12.681404],[-63.785671,-12.427493],[-63.956265,-12.530383],[-64.290809,-12.500246],[-64.503691,-12.360202],[-64.506479,-12.226651],[-64.711842,-12.173677],[-64.707966,-12.086389],[-64.757142,-12.155758],[-64.837946,-12.010891],[-65.031394,-11.994531],[-65.0851,-11.712257],[-65.260048,-11.706421],[-65.211262,-11.530012],[-65.304382,-11.50089],[-65.360678,-11.250879],[-65.250873,-10.986505],[-65.428905,-10.480558],[-65.288236,-10.219427],[-65.285523,-9.841057],[-65.374165,-9.698908],[-65.442909,-9.669737],[-65.558636,-9.843299],[-65.773854,-9.734197],[-66.458886,-9.87524]]],[[[-66.458886,-9.87524],[-66.454072,-9.877268],[-66.456774,-9.878479],[-66.458886,-9.87524]]]]},"properties":{"id":21,"name":"Rondônia","sigla":"RO","regiao_id":"3","codigo_ibg":"11","cartodb_id":21,"created_at":"2015-02-09T16:46:01Z","updated_at":"2015-02-09T16:46:01Z"}},{"type":"Feature","geometry":{"type":"MultiPolygon","coordinates":[[[[-59.916352,3.145915],[-59.98963,2.68657],[-59.896016,2.363334],[-59.721919,2.27679],[-59.751241,1.861686],[-59.662311,1.870199],[-59.689858,1.758476],[-59.53624,1.720142],[-59.252367,1.388596],[-58.886303,1.260595],[-58.89489,0.263852],[-59.191754,0.263858],[-59.433029,0.263858],[-60.037434,0.263837],[-60.399423,-0.509759],[-60.303101,-0.71094],[-60.530535,-0.874748],[-60.752194,-0.860857],[-60.920256,-0.555036],[-61.086925,-0.499759],[-61.428315,-0.633915],[-61.538314,-0.755865],[-61.628317,-1.301136],[-61.482203,-1.5803],[-61.634982,-1.433631],[-61.896094,-1.395022],[-62.039147,-1.118076],[-62.509707,-0.75864],[-62.486096,-0.681141],[-62.406375,-0.726972],[-62.290344,-0.64633],[-62.308673,-0.513833],[-62.18784,-0.330494],[-62.423875,0.091908],[-62.53248,0.509141],[-62.471089,1.086598],[-62.803914,1.590666],[-62.705501,1.940031],[-63.023254,2.014976],[-63.14098,2.172756],[-63.359285,2.197405],[-63.406197,2.436114],[-63.708401,2.380613],[-64.055483,2.498056],[-63.993487,2.770078],[-64.233756,3.114075],[-64.185123,3.560054],[-64.487939,3.791074],[-64.824229,4.243664],[-64.698356,4.251629],[-64.559816,4.102308],[-64.163735,4.126716],[-63.963752,3.868478],[-63.858973,3.94802],[-63.681981,3.9079],[-63.680225,4.017368],[-63.498192,3.843075],[-63.428172,3.977551],[-63.205667,3.951764],[-63.225946,3.835884],[-62.959555,3.608111],[-62.834928,3.737826],[-62.736219,3.689501],[-62.747222,4.034892],[-62.556391,4.018108],[-62.437095,4.183369],[-62.14506,4.075258],[-61.983734,4.179663],[-61.93003,4.103728],[-61.7744,4.249856],[-61.559075,4.254601],[-61.512765,4.406575],[-61.288933,4.458214],[-61.321408,4.535125],[-60.995552,4.518033],[-60.90016,4.715753],[-60.59128,4.927245],[-60.722588,5.220316],[-60.433663,5.181756],[-60.209706,5.270855],[-59.996159,5.084921],[-59.989703,4.986605],[-60.02955,4.700879],[-60.161946,4.508342],[-59.793594,4.465828],[-59.675067,4.37276],[-59.724047,4.182787],[-59.517455,3.943488],[-59.66785,3.703472],[-59.865229,3.577268],[-59.806231,3.354814],[-59.916352,3.145915]]]]},"properties":{"id":22,"name":"Roraima","sigla":"RR","regiao_id":"3","codigo_ibg":"14","cartodb_id":22,"created_at":"2015-02-09T16:46:01Z","updated_at":"2015-02-09T16:46:01Z"}},{"type":"Feature","geometry":{"type":"MultiPolygon","coordinates":[[[[-52.043669,-31.57374],[-52.109928,-31.553575],[-52.068556,-31.676124],[-52.256169,-31.848617],[-52.067883,-32.029634],[-52.098151,-32.161508],[-52.30639,-32.361007],[-52.62867,-33.115653],[-53.415977,-33.748346],[-53.535302,-33.613258],[-53.510175,-33.535401],[-53.449752,-33.569597],[-53.430421,-33.155555],[-53.319514,-33.05469],[-53.255673,-33.102124],[-53.123145,-32.790994],[-53.072341,-32.832491],[-52.982168,-32.734131],[-52.894167,-32.892195],[-52.750015,-32.86162],[-52.585617,-32.52622],[-52.693135,-32.317625],[-52.621861,-32.143311],[-52.794787,-32.27079],[-52.817256,-32.340493],[-52.723777,-32.387112],[-52.953421,-32.485547],[-53.07578,-32.656163],[-53.38786,-32.586268],[-53.643716,-32.38316],[-53.745262,-32.078282],[-53.971665,-31.918275],[-54.099898,-31.927319],[-54.5849,-31.457696],[-54.835256,-31.441428],[-55.005921,-31.267785],[-55.07324,-31.331873],[-55.237892,-31.259963],[-55.576558,-30.833231],[-55.869236,-31.069749],[-56.009416,-31.080787],[-56.02236,-30.786057],[-56.806614,-30.103732],[-57.068388,-30.086379],[-57.221324,-30.289849],[-57.523308,-30.285215],[-57.642721,-30.188407],[-57.345234,-30.002758],[-57.277701,-29.817088],[-56.967514,-29.638603],[-56.588854,-29.119621],[-56.413467,-29.07074],[-56.282474,-28.787684],[-55.885503,-28.479628],[-55.871644,-28.358517],[-55.699503,-28.425576],[-55.667473,-28.333268],[-55.773346,-28.244754],[-55.444488,-28.09625],[-55.195809,-27.856217],[-55.031327,-27.854935],[-55.080343,-27.779097],[-54.93608,-27.772063],[-54.811594,-27.529241],[-54.681963,-27.574257],[-54.584708,-27.454187],[-54.27993,-27.445471],[-54.172071,-27.25439],[-54.077486,-27.296804],[-53.874341,-27.127249],[-53.641969,-27.220393],[-53.371984,-27.090481],[-53.309484,-27.216853],[-53.028462,-27.080097],[-52.977166,-27.220689],[-52.951253,-27.161602],[-52.698552,-27.281981],[-52.445402,-27.217168],[-52.374868,-27.303786],[-52.166017,-27.273406],[-51.950503,-27.380848],[-52.007322,-27.401605],[-51.889038,-27.519828],[-51.631122,-27.488751],[-51.081595,-27.834384],[-50.624625,-28.390978],[-50.156501,-28.4972],[-50.126295,-28.428853],[-49.764685,-28.45966],[-49.691131,-28.618444],[-49.934882,-28.727607],[-49.953998,-29.085019],[-50.165967,-29.247338],[-50.036938,-29.350757],[-50.114169,-29.258757],[-49.946316,-29.199966],[-49.711305,-29.325448],[-50.017487,-29.7718],[-50.332998,-30.500274],[-50.768792,-31.109558],[-51.249787,-31.566743],[-52.081144,-32.15693],[-52.013322,-31.938848],[-52.097628,-31.835423],[-51.851719,-31.867023],[-51.786637,-31.805769],[-51.864607,-31.798898],[-51.664143,-31.770449],[-51.490777,-31.568786],[-51.435788,-31.624347],[-51.428865,-31.48027],[-51.360046,-31.528631],[-51.237768,-31.457622],[-51.168123,-31.066838],[-50.980022,-31.040525],[-50.96623,-30.895583],[-50.701455,-30.745804],[-50.728918,-30.367655],[-50.623465,-30.391576],[-50.626833,-30.327322],[-50.653876,-30.442436],[-50.574356,-30.48144],[-50.596896,-30.194067],[-50.672716,-30.296119],[-50.921588,-30.331649],[-50.929504,-30.435251],[-51.054701,-30.391404],[-51.03023,-30.273953],[-51.248058,-30.185762],[-51.295152,-30.001162],[-51.293126,-30.303492],[-51.094761,-30.381112],[-51.142259,-30.470535],[-51.181996,-30.407385],[-51.257951,-30.466327],[-51.295483,-30.750499],[-51.31713,-30.647642],[-51.386426,-30.6545],[-51.368619,-30.873673],[-51.496093,-30.914872],[-51.440199,-31.087194],[-51.61757,-31.139188],[-51.616175,-31.267165],[-51.918857,-31.310252],[-52.032213,-31.694637],[-52.043669,-31.57374]]],[[[-51.295483,-30.750499],[-51.281652,-30.79734],[-51.280603,-30.801143],[-51.281396,-30.8078],[-51.281897,-30.812016],[-51.289814,-30.817001],[-51.297817,-30.815707],[-51.284633,-30.806501],[-51.28676,-30.796988],[-51.287374,-30.796722],[-51.309166,-30.787278],[-51.31808,-30.783414],[-51.323411,-30.780352],[-51.314407,-30.781664],[-51.314208,-30.781693],[-51.304948,-30.783794],[-51.293453,-30.770119],[-51.294261,-30.764519],[-51.294271,-30.764394],[-51.295483,-30.750499]]],[[[-50.098154,-29.23608],[-50.092698,-29.221853],[-50.084947,-29.215208],[-50.087578,-29.222485],[-50.08347,-29.227521],[-50.093363,-29.23721],[-50.098154,-29.23608]]],[[[-51.148111,-30.472971],[-51.142259,-30.470535],[-51.152054,-30.499744],[-51.156551,-30.498394],[-51.148111,-30.472971]]],[[[-49.95607,-29.06698],[-49.956259,-29.061676],[-49.945636,-29.055149],[-49.939556,-29.056687],[-49.94202,-29.064257],[-49.951665,-29.062529],[-49.947693,-29.069242],[-49.95607,-29.06698]]],[[[-51.294501,-30.053588],[-51.289229,-30.056898],[-51.268429,-30.055382],[-51.291824,-30.064346],[-51.294501,-30.053588]]],[[[-52.101693,-31.801463],[-52.106174,-31.801589],[-52.11047,-31.792739],[-52.093481,-31.792672],[-52.101693,-31.801463]]],[[[-53.418556,-33.129563],[-53.421363,-33.131442],[-53.420108,-33.124568],[-53.416696,-33.118232],[-53.413445,-33.11259],[-53.410424,-33.107686],[-53.406056,-33.107528],[-53.409369,-33.113414],[-53.412778,-33.117996],[-53.415162,-33.122578],[-53.418556,-33.129563]]],[[[-49.968549,-29.120472],[-49.967653,-29.115559],[-49.963833,-29.114166],[-49.962354,-29.117466],[-49.968549,-29.120472]]],[[[-51.464724,-31.549706],[-51.462109,-31.543858],[-51.462683,-31.548098],[-51.463926,-31.55728],[-51.466018,-31.554164],[-51.464851,-31.54999],[-51.464724,-31.549706]]],[[[-51.169024,-30.264125],[-51.157841,-30.261959],[-51.163465,-30.266056],[-51.169024,-30.264125]]],[[[-51.104953,-30.259277],[-51.102128,-30.253869],[-51.100292,-30.258867],[-51.104953,-30.259277]]],[[[-52.044462,-31.567576],[-52.043669,-31.57374],[-52.046969,-31.571849],[-52.044462,-31.567576]]],[[[-51.191486,-30.234579],[-51.187793,-30.233682],[-51.190905,-30.238349],[-51.191486,-30.234579]]]]},"properties":{"id":23,"name":"Rio Grande do Sul","sigla":"RS","regiao_id":"1","codigo_ibg":"43","cartodb_id":23,"created_at":"2015-02-09T16:46:01Z","updated_at":"2015-02-09T16:46:01Z"}},{"type":"Feature","geometry":{"type":"MultiPolygon","coordinates":[[[[-53.720454,-26.559912],[-53.642566,-26.252258],[-53.280969,-26.246701],[-53.090101,-26.390009],[-52.737252,-26.341682],[-52.185149,-26.444918],[-51.873106,-26.599744],[-51.509564,-26.581689],[-51.411026,-26.71679],[-51.228168,-26.615517],[-51.297305,-26.41897],[-51.242771,-26.32357],[-51.08267,-26.227889],[-50.718005,-26.244286],[-50.571305,-26.0033],[-50.323111,-26.134443],[-50.25103,-26.029735],[-49.941727,-26.008382],[-49.554595,-26.236831],[-49.174795,-26.001348],[-48.642921,-25.955779],[-48.492428,-26.218684],[-48.679779,-26.726406],[-48.584956,-26.783022],[-48.602145,-27.124613],[-48.465152,-27.14468],[-48.616132,-27.250717],[-48.52382,-27.333604],[-48.646663,-27.482517],[-48.567224,-27.595407],[-48.643485,-27.642734],[-48.573511,-27.889596],[-48.742512,-28.507569],[-49.290609,-28.882493],[-49.711305,-29.325448],[-49.962461,-29.198392],[-50.114169,-29.258757],[-50.064516,-29.340854],[-50.151448,-29.202579],[-50.093363,-29.23721],[-50.098947,-29.163249],[-49.962354,-29.117466],[-49.934882,-28.727607],[-49.691757,-28.624663],[-49.764685,-28.45966],[-50.126295,-28.428853],[-50.156501,-28.4972],[-50.624625,-28.390978],[-51.081595,-27.834384],[-51.631122,-27.488751],[-51.889038,-27.519828],[-52.007322,-27.401605],[-51.950503,-27.380848],[-52.166017,-27.273406],[-52.374868,-27.303786],[-52.445402,-27.217168],[-52.698552,-27.281981],[-52.951253,-27.161602],[-52.977166,-27.220689],[-53.028462,-27.080097],[-53.309484,-27.216853],[-53.371984,-27.090481],[-53.506027,-27.137903],[-53.491541,-27.201654],[-53.833833,-27.16934],[-53.670212,-26.94138],[-53.720454,-26.559912]]],[[[-48.41035,-27.38943],[-48.359389,-27.44819],[-48.569631,-27.835713],[-48.547171,-27.458378],[-48.41035,-27.38943]]],[[[-48.565368,-27.477238],[-48.562149,-27.473866],[-48.563643,-27.479519],[-48.565368,-27.477238]]]]},"properties":{"id":24,"name":"Santa Catarina","sigla":"SC","regiao_id":"1","codigo_ibg":"42","cartodb_id":24,"created_at":"2015-02-09T16:46:01Z","updated_at":"2015-02-09T16:46:01Z"}},{"type":"Feature","geometry":{"type":"MultiPolygon","coordinates":[[[[-37.960063,-9.532816],[-36.991601,-9.976776],[-36.910464,-10.137513],[-36.623312,-10.25773],[-36.56376,-10.415908],[-36.393427,-10.498067],[-36.85376,-10.743138],[-37.329535,-11.44466],[-37.517548,-11.547579],[-37.699565,-11.562016],[-37.977461,-11.39315],[-37.973964,-11.194839],[-38.240408,-10.876258],[-38.211549,-10.708731],[-37.999466,-10.763949],[-37.813529,-10.690617],[-37.858716,-10.426042],[-37.736156,-10.331607],[-37.831385,-10.0005],[-37.99726,-9.916292],[-38.040017,-9.572666],[-37.960063,-9.532816]]]]},"properties":{"id":25,"name":"Sergipe","sigla":"SE","regiao_id":"4","codigo_ibg":"28","cartodb_id":25,"created_at":"2015-02-09T16:46:01Z","updated_at":"2015-02-09T16:46:01Z"}},{"type":"Feature","geometry":{"type":"MultiPolygon","coordinates":[[[[-46.137723,-23.858882],[-46.181376,-23.990014],[-46.287026,-24.043965],[-46.384232,-23.969873],[-46.940406,-24.280038],[-47.009244,-24.413565],[-47.841466,-24.974503],[-48.09852,-25.310889],[-48.02308,-25.230467],[-48.186718,-25.198397],[-48.251197,-24.978246],[-48.333188,-25.070067],[-48.410589,-24.979624],[-48.528101,-25.10029],[-48.582178,-25.051061],[-48.498829,-24.73846],[-48.581366,-24.671118],[-49.304824,-24.672141],[-49.200279,-24.343974],[-49.610245,-23.851198],[-49.566613,-23.426741],[-49.67783,-23.164573],[-49.911112,-23.050628],[-49.985672,-22.897021],[-50.182844,-22.95327],[-50.661794,-22.895208],[-50.741095,-22.960908],[-50.890392,-22.795326],[-51.263287,-22.66857],[-51.717664,-22.668533],[-52.107133,-22.516211],[-52.222989,-22.673825],[-52.586219,-22.56604],[-52.60274,-22.570728],[-52.662436,-22.611381],[-52.701168,-22.626991],[-52.971909,-22.570007],[-53.087301,-22.657924],[-53.107751,-22.596822],[-52.407678,-22.141158],[-52.075978,-21.714378],[-52.077285,-21.514747],[-51.967399,-21.501288],[-51.867191,-21.351186],[-51.875362,-21.135676],[-51.61849,-20.93195],[-51.586467,-20.63433],[-51.342903,-20.355342],[-51.068671,-20.249579],[-50.965972,-20.034059],[-50.575501,-19.815551],[-49.264697,-19.961567],[-49.238354,-20.286567],[-48.991778,-20.164918],[-48.898861,-20.440723],[-48.822743,-20.161432],[-48.24591,-20.140474],[-48.240484,-20.028873],[-48.111617,-20.143418],[-47.975508,-20.034894],[-47.893921,-20.123355],[-47.859325,-19.992516],[-47.635516,-20.047902],[-47.473251,-19.961547],[-47.230652,-20.218623],[-47.291328,-20.448829],[-47.096057,-20.658585],[-47.239588,-20.884798],[-47.010779,-21.421805],[-46.665248,-21.36116],[-46.508802,-21.469408],[-46.517102,-21.611396],[-46.690506,-21.836456],[-46.613023,-22.009113],[-46.722808,-22.07652],[-46.600063,-22.134254],[-46.722804,-22.306125],[-46.406688,-22.540048],[-46.392603,-22.662476],[-46.477479,-22.698898],[-46.334763,-22.759699],[-46.359178,-22.895635],[-45.790825,-22.857636],[-45.713135,-22.814285],[-45.72783,-22.72317],[-45.819423,-22.722059],[-45.693546,-22.651209],[-45.716467,-22.5781],[-45.664559,-22.650157],[-45.471344,-22.590023],[-45.399546,-22.65263],[-44.808797,-22.404772],[-44.633017,-22.60873],[-44.383979,-22.573224],[-44.161749,-22.674135],[-44.269527,-22.829798],[-44.792039,-22.981663],[-44.888492,-23.223999],[-44.723999,-23.367601],[-44.907363,-23.333195],[-45.081623,-23.521264],[-45.406128,-23.622848],[-45.404629,-23.819589],[-45.844005,-23.757598],[-46.137723,-23.858882]]],[[[-45.320935,-23.914938],[-45.461657,-23.887757],[-45.328825,-23.720992],[-45.229593,-23.77629],[-45.289743,-23.865889],[-45.224435,-23.902473],[-45.250468,-23.965477],[-45.320935,-23.914938]]],[[[-45.077848,-23.535286],[-45.072114,-23.538342],[-45.064817,-23.538017],[-45.061275,-23.532952],[-45.059144,-23.526232],[-45.0437,-23.53257],[-45.039396,-23.534384],[-45.041999,-23.541443],[-45.046777,-23.542835],[-45.057262,-23.545812],[-45.069815,-23.556151],[-45.075577,-23.560975],[-45.079198,-23.563836],[-45.080622,-23.558267],[-45.081899,-23.553088],[-45.078276,-23.545599],[-45.081487,-23.540952],[-45.083531,-23.537607],[-45.080149,-23.533498],[-45.080314,-23.529824],[-45.080502,-23.525411],[-45.076678,-23.530016],[-45.077848,-23.535286]]],[[[-45.139775,-23.799866],[-45.114916,-23.807171],[-45.118344,-23.81447],[-45.119681,-23.817279],[-45.132296,-23.812545],[-45.146153,-23.820932],[-45.15639,-23.812895],[-45.158348,-23.805178],[-45.148576,-23.794546],[-45.138333,-23.792671],[-45.139152,-23.796758],[-45.139775,-23.799866]]],[[[-45.163376,-23.566709],[-45.156313,-23.559269],[-45.151657,-23.563108],[-45.147614,-23.56644],[-45.145799,-23.57018],[-45.150058,-23.569541],[-45.152677,-23.568408],[-45.15762,-23.572813],[-45.16113,-23.569129],[-45.163376,-23.566709]]],[[[-45.01966,-23.758692],[-45.018595,-23.754241],[-45.009291,-23.752207],[-45.008732,-23.759404],[-45.011856,-23.762092],[-45.015913,-23.765323],[-45.020338,-23.762851],[-45.01966,-23.758692]]],[[[-45.779012,-23.867611],[-45.78175,-23.870508],[-45.786864,-23.867287],[-45.787367,-23.861995],[-45.784601,-23.858372],[-45.778837,-23.857254],[-45.775499,-23.858661],[-45.779012,-23.867611]]],[[[-45.293576,-23.596097],[-45.292307,-23.593246],[-45.285965,-23.593149],[-45.28083,-23.593071],[-45.282815,-23.601086],[-45.288561,-23.600791],[-45.29527,-23.600042],[-45.293576,-23.596097]]],[[[-45.018595,-23.754241],[-45.024286,-23.751931],[-45.022745,-23.743563],[-45.01844,-23.743987],[-45.014631,-23.746732],[-45.016814,-23.750805],[-45.018595,-23.754241]]],[[[-45.725934,-23.800637],[-45.719123,-23.797829],[-45.714548,-23.80298],[-45.717449,-23.804154],[-45.724011,-23.802953],[-45.725934,-23.800637]]],[[[-45.526033,-23.849328],[-45.522752,-23.845662],[-45.520239,-23.84863],[-45.522206,-23.854422],[-45.525207,-23.854021],[-45.526033,-23.849328]]],[[[-46.906652,-24.389684],[-46.903123,-24.387248],[-46.901777,-24.394166],[-46.903396,-24.396626],[-46.90626,-24.394412],[-46.906652,-24.389684]]],[[[-46.909409,-24.373831],[-46.904537,-24.373831],[-46.904459,-24.377402],[-46.90859,-24.380528],[-46.910651,-24.377446],[-46.909409,-24.373831]]],[[[-45.033318,-23.548712],[-45.028011,-23.545078],[-45.024654,-23.54396],[-45.025823,-23.549256],[-45.033318,-23.548712]]],[[[-44.851379,-23.399177],[-44.853381,-23.403232],[-44.855043,-23.398048],[-44.849429,-23.39494],[-44.851379,-23.399177]]],[[[-44.948537,-23.38621],[-44.945046,-23.383382],[-44.940537,-23.383518],[-44.9445,-23.387351],[-44.948537,-23.38621]]],[[[-46.979876,-24.37096],[-46.978996,-24.367896],[-46.974882,-24.369621],[-46.977016,-24.372281],[-46.979876,-24.37096]]],[[[-47.913506,-25.166847],[-47.911411,-25.162919],[-47.908408,-25.166948],[-47.913506,-25.166847]]],[[[-45.228607,-23.813211],[-45.225242,-23.813678],[-45.228225,-23.817086],[-45.228607,-23.813211]]],[[[-45.325172,-23.915907],[-45.320935,-23.914938],[-45.322992,-23.917357],[-45.324072,-23.918626],[-45.324569,-23.917398],[-45.325172,-23.915907]]],[[[-45.714043,-23.790181],[-45.712564,-23.787262],[-45.709084,-23.788211],[-45.714043,-23.790181]]],[[[-45.276823,-23.853116],[-45.278635,-23.854947],[-45.279758,-23.852083],[-45.277006,-23.852336],[-45.276129,-23.852416],[-45.276823,-23.853116]]],[[[-45.297189,-23.920585],[-45.297003,-23.916967],[-45.294481,-23.918756],[-45.297189,-23.920585]]],[[[-45.156356,-23.830774],[-45.153855,-23.828627],[-45.153078,-23.831627],[-45.156356,-23.830774]]],[[[-45.671725,-23.804677],[-45.670327,-23.802003],[-45.668829,-23.804942],[-45.671725,-23.804677]]]]},"properties":{"id":26,"name":"São Paulo","sigla":"SP","regiao_id":"2","codigo_ibg":"35","cartodb_id":26,"created_at":"2015-02-09T16:46:01Z","updated_at":"2015-02-09T16:46:01Z"}},{"type":"Feature","geometry":{"type":"MultiPolygon","coordinates":[[[[-47.032958,-8.982325],[-47.068303,-9.063475],[-46.92223,-9.0663],[-46.762939,-9.40855],[-46.560548,-9.483629],[-46.646991,-9.729945],[-46.49322,-9.827016],[-46.367463,-10.168403],[-45.793325,-10.267263],[-45.698859,-10.16644],[-45.827299,-10.435545],[-46.210548,-10.649255],[-46.282995,-10.906335],[-46.616668,-11.289032],[-46.478886,-11.515971],[-46.08625,-11.621714],[-46.314531,-11.631832],[-46.374156,-11.868178],[-46.170841,-11.900564],[-46.397437,-12.039917],[-46.351964,-12.336976],[-46.254333,-12.492756],[-46.153544,-12.482796],[-46.279515,-12.584471],[-46.304358,-12.949443],[-46.119495,-12.925407],[-46.363444,-12.990788],[-46.417186,-12.823042],[-46.45422,-12.970722],[-46.750177,-12.968724],[-47.426534,-13.289007],[-47.63434,-13.104065],[-47.678542,-13.46728],[-47.823547,-13.311435],[-48.062013,-13.234968],[-48.164957,-13.305356],[-48.173492,-13.147675],[-48.441266,-13.291938],[-48.508419,-13.128422],[-48.58596,-13.317182],[-48.601652,-13.059894],[-48.857053,-12.804994],[-48.975176,-12.956771],[-49.118631,-12.789931],[-49.236963,-12.883541],[-49.369037,-13.274169],[-50.292184,-12.839493],[-50.299642,-12.680466],[-50.142216,-12.39551],[-50.36546,-12.545645],[-50.510606,-12.860278],[-50.622263,-12.819312],[-50.706022,-12.609279],[-50.617789,-12.428571],[-50.686406,-12.201735],[-50.638822,-11.884152],[-50.721575,-11.739285],[-50.65606,-11.600417],[-50.741594,-11.454492],[-50.608993,-11.067047],[-50.602989,-10.660528],[-50.417827,-10.355864],[-50.03733,-9.289006],[-49.744634,-8.905768],[-49.591958,-8.839096],[-49.282871,-8.379166],[-49.150136,-7.80181],[-49.383604,-7.543108],[-49.184836,-7.234789],[-49.20905,-6.92502],[-48.664412,-6.662383],[-48.507179,-6.354583],[-48.382239,-6.379232],[-48.431498,-6.176918],[-48.291684,-6.103692],[-48.334277,-6.003902],[-48.231193,-5.945764],[-48.294112,-5.756302],[-48.135051,-5.63733],[-48.384303,-5.393838],[-48.754713,-5.348801],[-48.36347,-5.168012],[-48.178105,-5.260407],[-47.885136,-5.260332],[-47.843325,-5.37584],[-47.49969,-5.525235],[-47.378389,-6.270479],[-47.529477,-6.976146],[-47.745785,-7.200837],[-47.648084,-7.302969],[-47.499355,-7.293472],[-47.590437,-7.439154],[-47.504277,-7.436249],[-47.043074,-8.053196],[-46.604246,-7.895787],[-46.46619,-8.065802],[-46.54421,-8.318931],[-46.806408,-8.398576],[-46.915971,-8.595382],[-46.913022,-8.847427],[-47.032958,-8.982325]]]]},"properties":{"id":27,"name":"Tocantins","sigla":"TO","regiao_id":"3","codigo_ibg":"17","cartodb_id":27,"created_at":"2015-02-09T16:46:01Z","updated_at":"2015-02-09T16:46:01Z"}},{"type":"Feature","geometry":{"type":"MultiPolygon","coordinates":[[[[-47.308609,-16.035491],[-48.278674,-16.051101],[-48.197192,-15.500511],[-47.416906,-15.499863],[-47.31543,-15.593974],[-47.37645,-15.977942],[-47.308609,-16.035491]]]]},"properties":{"id":7,"name":"Distrito Federal","sigla":"DF","regiao_id":"5","codigo_ibg":"53","cartodb_id":7,"created_at":"2015-02-09T16:46:01Z","updated_at":"2015-02-09T16:46:01Z"}}]}